{
"type": "FeatureCollection",
"name": "hydrorivers_sylhet_lines",
"crs": { "type": "name", "properties": { "name": "urn:ogc:def:crs:OGC:1.3:CRS84" } },
"features": [
{ "type": "Feature", "properties": { "ARCID": 739413, "UP_CELLS": 1185, "buffer_m": 80 }, "geometry": { "type": "LineString", "coordinates": [ [ 92.422916666666097, 25.227083333332743 ], [ 92.422916666666097, 25.21874999999941 ], [ 92.427083333332774, 25.214583333332737 ], [ 92.427083333332774, 25.210416666666077 ], [ 92.431249999999437, 25.210416666666074 ], [ 92.4354166666661, 25.206249999999404 ], [ 92.4354166666661, 25.202083333332745 ], [ 92.427083333332774, 25.193749999999408 ], [ 92.431249999999437, 25.189583333332735 ], [ 92.431249999999437, 25.185416666666075 ], [ 92.427083333332774, 25.181249999999405 ], [ 92.427083333332774, 25.17708333333275 ] ] } },
{ "type": "Feature", "properties": { "ARCID": 739552, "UP_CELLS": 4499, "buffer_m": 80 }, "geometry": { "type": "LineString", "coordinates": [ [ 92.00624999999944, 25.210416666666077 ], [ 92.010416666666117, 25.206249999999404 ], [ 92.01458333333278, 25.206249999999404 ], [ 92.022916666666106, 25.197916666666067 ], [ 92.018749999999443, 25.193749999999412 ], [ 92.018749999999443, 25.189583333332738 ], [ 92.01458333333278, 25.185416666666075 ], [ 92.002083333332763, 25.185416666666079 ], [ 91.9979166666661, 25.181249999999416 ], [ 91.993749999999437, 25.181249999999412 ], [ 91.981249999999449, 25.16874999999941 ], [ 91.95208333333278, 25.168749999999413 ], [ 91.947916666666103, 25.172916666666069 ] ] } },
{ "type": "Feature", "properties": { "ARCID": 739658, "UP_CELLS": 4774, "buffer_m": 80 }, "geometry": { "type": "LineString", "coordinates": [ [ 91.947916666666103, 25.172916666666069 ], [ 91.931249999999437, 25.172916666666076 ], [ 91.918749999999449, 25.16041666666607 ], [ 91.914583333332786, 25.160416666666066 ] ] } },
{ "type": "Feature", "properties": { "ARCID": 739738, "UP_CELLS": 1346, "buffer_m": 80 }, "geometry": { "type": "LineString", "coordinates": [ [ 92.427083333332774, 25.17708333333275 ], [ 92.439583333332763, 25.16458333333274 ], [ 92.439583333332763, 25.15624999999941 ] ] } },
{ "type": "Feature", "properties": { "ARCID": 739806, "UP_CELLS": 704, "buffer_m": 80 }, "geometry": { "type": "LineString", "coordinates": [ [ 92.352083333332772, 25.264583333332748 ], [ 92.347916666666094, 25.260416666666078 ], [ 92.343749999999432, 25.260416666666071 ], [ 92.339583333332769, 25.256249999999408 ], [ 92.335416666666106, 25.256249999999412 ], [ 92.327083333332766, 25.247916666666072 ], [ 92.322916666666103, 25.247916666666065 ], [ 92.318749999999426, 25.243749999999405 ], [ 92.314583333332763, 25.243749999999405 ], [ 92.306249999999437, 25.235416666666065 ], [ 92.306249999999437, 25.227083333332743 ], [ 92.314583333332763, 25.218749999999403 ], [ 92.314583333332763, 25.214583333332733 ], [ 92.318749999999426, 25.210416666666074 ], [ 92.318749999999426, 25.202083333332741 ], [ 92.314583333332763, 25.197916666666078 ], [ 92.318749999999426, 25.193749999999412 ], [ 92.318749999999426, 25.189583333332735 ], [ 92.322916666666103, 25.185416666666079 ], [ 92.314583333332763, 25.177083333332742 ], [ 92.314583333332763, 25.172916666666076 ], [ 92.318749999999426, 25.16874999999941 ], [ 92.3104166666661, 25.16041666666607 ], [ 92.3104166666661, 25.15624999999941 ], [ 92.306249999999437, 25.152083333332733 ] ] } },
{ "type": "Feature", "properties": { "ARCID": 740049, "UP_CELLS": 1694, "buffer_m": 80 }, "geometry": { "type": "LineString", "coordinates": [ [ 92.502083333332763, 25.15208333333274 ], [ 92.485416666666097, 25.135416666666071 ], [ 92.48124999999942, 25.139583333332748 ], [ 92.477083333332757, 25.139583333332748 ], [ 92.472916666666094, 25.143749999999407 ], [ 92.468749999999432, 25.139583333332745 ], [ 92.464583333332769, 25.139583333332741 ], [ 92.452083333332766, 25.15208333333274 ], [ 92.447916666666103, 25.152083333332744 ], [ 92.443749999999426, 25.15624999999941 ], [ 92.439583333332763, 25.15624999999941 ] ] } },
{ "type": "Feature", "properties": { "ARCID": 740113, "UP_CELLS": 5416, "buffer_m": 150 }, "geometry": { "type": "LineString", "coordinates": [ [ 91.914583333332786, 25.160416666666066 ], [ 91.906249999999432, 25.15208333333274 ], [ 91.906249999999432, 25.147916666666074 ], [ 91.902083333332769, 25.147916666666074 ], [ 91.88958333333278, 25.135416666666067 ], [ 91.88958333333278, 25.131249999999412 ], [ 91.868749999999451, 25.131249999999408 ], [ 91.864583333332789, 25.135416666666075 ], [ 91.856249999999449, 25.135416666666075 ], [ 91.852083333332772, 25.139583333332748 ], [ 91.847916666666109, 25.139583333332748 ] ] } },
{ "type": "Feature", "properties": { "ARCID": 740114, "UP_CELLS": 2800, "buffer_m": 80 }, "geometry": { "type": "LineString", "coordinates": [ [ 92.227083333332772, 25.22291666666607 ], [ 92.227083333332772, 25.218749999999403 ], [ 92.235416666666111, 25.21041666666607 ], [ 92.231249999999434, 25.206249999999404 ], [ 92.239583333332774, 25.197916666666071 ], [ 92.239583333332774, 25.189583333332742 ], [ 92.235416666666111, 25.185416666666075 ], [ 92.231249999999434, 25.185416666666079 ], [ 92.231249999999434, 25.181249999999412 ], [ 92.235416666666111, 25.177083333332742 ], [ 92.227083333332772, 25.168749999999417 ], [ 92.227083333332772, 25.16041666666607 ], [ 92.222916666666094, 25.156249999999407 ], [ 92.214583333332769, 25.15624999999941 ], [ 92.210416666666106, 25.15208333333274 ], [ 92.214583333332769, 25.147916666666074 ], [ 92.206249999999443, 25.139583333332748 ], [ 92.206249999999443, 25.135416666666071 ], [ 92.202083333332766, 25.131249999999412 ] ] } },
{ "type": "Feature", "properties": { "ARCID": 740192, "UP_CELLS": 5582, "buffer_m": 150 }, "geometry": { "type": "LineString", "coordinates": [ [ 91.847916666666109, 25.139583333332748 ], [ 91.843749999999432, 25.139583333332741 ], [ 91.839583333332769, 25.135416666666075 ], [ 91.839583333332769, 25.131249999999412 ], [ 91.835416666666106, 25.127083333332742 ] ] } },
{ "type": "Feature", "properties": { "ARCID": 740193, "UP_CELLS": 1089, "buffer_m": 80 }, "geometry": { "type": "LineString", "coordinates": [ [ 92.306249999999437, 25.152083333332733 ], [ 92.302083333332774, 25.152083333332733 ], [ 92.293749999999434, 25.143749999999411 ], [ 92.289583333332757, 25.143749999999407 ], [ 92.281249999999432, 25.135416666666071 ], [ 92.252083333332777, 25.135416666666071 ], [ 92.2479166666661, 25.131249999999412 ], [ 92.243749999999437, 25.131249999999415 ], [ 92.239583333332774, 25.127083333332738 ], [ 92.227083333332772, 25.127083333332735 ], [ 92.222916666666094, 25.131249999999412 ], [ 92.202083333332766, 25.131249999999412 ] ] } },
{ "type": "Feature", "properties": { "ARCID": 740331, "UP_CELLS": 5859, "buffer_m": 150 }, "geometry": { "type": "LineString", "coordinates": [ [ 91.835416666666106, 25.127083333332742 ], [ 91.831249999999443, 25.122916666666075 ], [ 91.818749999999454, 25.122916666666079 ], [ 91.814583333332777, 25.118749999999412 ] ] } },
{ "type": "Feature", "properties": { "ARCID": 740333, "UP_CELLS": 917, "buffer_m": 80 }, "geometry": { "type": "LineString", "coordinates": [ [ 92.110416666666111, 25.147916666666077 ], [ 92.106249999999449, 25.147916666666077 ], [ 92.102083333332772, 25.152083333332737 ], [ 92.097916666666094, 25.152083333332733 ], [ 92.085416666666106, 25.139583333332745 ], [ 92.06874999999944, 25.139583333332745 ], [ 92.064583333332763, 25.135416666666075 ], [ 92.064583333332763, 25.131249999999412 ], [ 92.056249999999437, 25.122916666666082 ], [ 92.047916666666111, 25.122916666666079 ], [ 92.043749999999434, 25.118749999999412 ], [ 92.039583333332772, 25.118749999999405 ] ] } },
{ "type": "Feature", "properties": { "ARCID": 740399, "UP_CELLS": 1142, "buffer_m": 80 }, "geometry": { "type": "LineString", "coordinates": [ [ 92.039583333332772, 25.118749999999405 ], [ 92.035416666666094, 25.114583333332739 ] ] } },
{ "type": "Feature", "properties": { "ARCID": 740821, "UP_CELLS": 6105, "buffer_m": 150 }, "geometry": { "type": "LineString", "coordinates": [ [ 91.814583333332777, 25.118749999999412 ], [ 91.814583333332777, 25.114583333332746 ], [ 91.8104166666661, 25.11458333333275 ], [ 91.806249999999437, 25.110416666666069 ], [ 91.806249999999437, 25.106249999999413 ], [ 91.789583333332786, 25.089583333332744 ] ] } },
{ "type": "Feature", "properties": { "ARCID": 740945, "UP_CELLS": 4199, "buffer_m": 80 }, "geometry": { "type": "LineString", "coordinates": [ [ 92.202083333332766, 25.131249999999412 ], [ 92.197916666666103, 25.131249999999412 ], [ 92.193749999999426, 25.135416666666067 ], [ 92.189583333332763, 25.135416666666071 ], [ 92.189583333332763, 25.122916666666079 ], [ 92.181249999999437, 25.114583333332742 ], [ 92.181249999999437, 25.110416666666069 ], [ 92.177083333332774, 25.106249999999413 ], [ 92.164583333332772, 25.10624999999942 ], [ 92.160416666666094, 25.110416666666069 ], [ 92.156249999999446, 25.110416666666069 ], [ 92.147916666666106, 25.102083333332736 ], [ 92.147916666666106, 25.097916666666077 ], [ 92.13958333333278, 25.08958333333274 ], [ 92.135416666666103, 25.089583333332747 ], [ 92.127083333332763, 25.081249999999407 ] ] } },
{ "type": "Feature", "properties": { "ARCID": 741013, "UP_CELLS": 2044, "buffer_m": 80 }, "geometry": { "type": "LineString", "coordinates": [ [ 91.785416666666109, 25.227083333332743 ], [ 91.785416666666109, 25.218749999999407 ], [ 91.789583333332786, 25.214583333332744 ], [ 91.785416666666109, 25.210416666666077 ], [ 91.781249999999432, 25.210416666666077 ], [ 91.768749999999457, 25.197916666666071 ], [ 91.768749999999457, 25.193749999999408 ], [ 91.76458333333278, 25.189583333332742 ], [ 91.76458333333278, 25.185416666666075 ], [ 91.75624999999944, 25.17708333333275 ], [ 91.75624999999944, 25.131249999999412 ], [ 91.760416666666117, 25.127083333332738 ], [ 91.760416666666117, 25.122916666666072 ], [ 91.76458333333278, 25.118749999999409 ], [ 91.760416666666117, 25.114583333332739 ], [ 91.760416666666117, 25.077083333332741 ] ] } },
{ "type": "Feature", "properties": { "ARCID": 741014, "UP_CELLS": 6417, "buffer_m": 150 }, "geometry": { "type": "LineString", "coordinates": [ [ 91.789583333332786, 25.089583333332744 ], [ 91.777083333332769, 25.077083333332748 ], [ 91.760416666666117, 25.077083333332741 ] ] } },
{ "type": "Feature", "properties": { "ARCID": 741225, "UP_CELLS": 576, "buffer_m": 80 }, "geometry": { "type": "LineString", "coordinates": [ [ 91.714583333332769, 25.110416666666072 ], [ 91.714583333332769, 25.097916666666077 ], [ 91.718749999999446, 25.093749999999407 ], [ 91.718749999999446, 25.081249999999404 ], [ 91.706249999999443, 25.068749999999412 ], [ 91.706249999999443, 25.064583333332735 ] ] } },
{ "type": "Feature", "properties": { "ARCID": 741226, "UP_CELLS": 8636, "buffer_m": 150 }, "geometry": { "type": "LineString", "coordinates": [ [ 91.760416666666117, 25.077083333332741 ], [ 91.752083333332777, 25.068749999999412 ], [ 91.735416666666111, 25.068749999999412 ], [ 91.731249999999449, 25.064583333332735 ], [ 91.706249999999443, 25.064583333332735 ] ] } },
{ "type": "Feature", "properties": { "ARCID": 741297, "UP_CELLS": 3434, "buffer_m": 80 }, "geometry": { "type": "LineString", "coordinates": [ [ 92.439583333332763, 25.15624999999941 ], [ 92.4354166666661, 25.152083333332744 ], [ 92.431249999999437, 25.15208333333274 ], [ 92.422916666666097, 25.143749999999407 ], [ 92.418749999999434, 25.143749999999411 ], [ 92.414583333332757, 25.139583333332748 ], [ 92.410416666666094, 25.139583333332741 ], [ 92.406249999999432, 25.135416666666071 ], [ 92.393749999999429, 25.135416666666071 ], [ 92.389583333332766, 25.131249999999415 ], [ 92.389583333332766, 25.122916666666079 ], [ 92.385416666666089, 25.118749999999409 ], [ 92.381249999999426, 25.118749999999412 ], [ 92.377083333332763, 25.114583333332735 ], [ 92.3729166666661, 25.114583333332739 ], [ 92.368749999999437, 25.110416666666069 ], [ 92.364583333332774, 25.110416666666076 ], [ 92.352083333332772, 25.097916666666077 ], [ 92.352083333332772, 25.085416666666074 ], [ 92.347916666666094, 25.0812499999994 ], [ 92.347916666666094, 25.060416666666079 ] ] } },
{ "type": "Feature", "properties": { "ARCID": 741659, "UP_CELLS": 2837, "buffer_m": 80 }, "geometry": { "type": "LineString", "coordinates": [ [ 91.622916666666129, 25.21874999999941 ], [ 91.622916666666129, 25.210416666666077 ], [ 91.635416666666117, 25.197916666666071 ], [ 91.635416666666117, 25.189583333332738 ], [ 91.63958333333278, 25.185416666666079 ], [ 91.635416666666117, 25.181249999999412 ], [ 91.635416666666117, 25.172916666666072 ], [ 91.631249999999454, 25.16874999999941 ], [ 91.631249999999454, 25.164583333332743 ], [ 91.635416666666117, 25.16041666666607 ], [ 91.635416666666117, 25.15624999999941 ], [ 91.63958333333278, 25.152083333332737 ], [ 91.63958333333278, 25.14791666666607 ], [ 91.647916666666106, 25.139583333332741 ], [ 91.647916666666106, 25.135416666666075 ], [ 91.652083333332769, 25.131249999999412 ], [ 91.652083333332769, 25.127083333332738 ], [ 91.656249999999446, 25.122916666666075 ], [ 91.656249999999446, 25.089583333332747 ], [ 91.668749999999449, 25.077083333332745 ], [ 91.668749999999449, 25.068749999999408 ], [ 91.677083333332774, 25.060416666666079 ], [ 91.672916666666126, 25.056249999999405 ], [ 91.672916666666126, 25.052083333332742 ], [ 91.668749999999449, 25.047916666666076 ], [ 91.668749999999449, 25.03958333333274 ] ] } },
{ "type": "Feature", "properties": { "ARCID": 741660, "UP_CELLS": 28576, "buffer_m": 150 }, "geometry": { "type": "LineString", "coordinates": [ [ 91.672916666666126, 25.039583333332743 ], [ 91.668749999999449, 25.03958333333274 ] ] } },
{ "type": "Feature", "properties": { "ARCID": 741661, "UP_CELLS": 9264, "buffer_m": 150 }, "geometry": { "type": "LineString", "coordinates": [ [ 91.706249999999443, 25.064583333332735 ], [ 91.69374999999944, 25.064583333332742 ], [ 91.689583333332777, 25.060416666666075 ], [ 91.689583333332777, 25.047916666666076 ], [ 91.681249999999437, 25.039583333332743 ], [ 91.672916666666126, 25.039583333332743 ] ] } },
{ "type": "Feature", "properties": { "ARCID": 741777, "UP_CELLS": 5096, "buffer_m": 150 }, "geometry": { "type": "LineString", "coordinates": [ [ 92.293749999999434, 25.031249999999407 ], [ 92.281249999999432, 25.031249999999407 ] ] } },
{ "type": "Feature", "properties": { "ARCID": 741778, "UP_CELLS": 3785, "buffer_m": 80 }, "geometry": { "type": "LineString", "coordinates": [ [ 92.347916666666094, 25.060416666666079 ], [ 92.339583333332769, 25.052083333332742 ], [ 92.335416666666106, 25.052083333332746 ], [ 92.331249999999443, 25.04791666666608 ], [ 92.327083333332766, 25.047916666666076 ], [ 92.322916666666103, 25.052083333332739 ], [ 92.306249999999437, 25.052083333332742 ], [ 92.297916666666097, 25.04374999999941 ], [ 92.297916666666097, 25.035416666666077 ], [ 92.293749999999434, 25.031249999999407 ] ] } },
{ "type": "Feature", "properties": { "ARCID": 741839, "UP_CELLS": 31447, "buffer_m": 150 }, "geometry": { "type": "LineString", "coordinates": [ [ 91.668749999999449, 25.03958333333274 ], [ 91.660416666666109, 25.03958333333274 ], [ 91.647916666666106, 25.027083333332744 ] ] } },
{ "type": "Feature", "properties": { "ARCID": 741972, "UP_CELLS": 4705, "buffer_m": 80 }, "geometry": { "type": "LineString", "coordinates": [ [ 92.127083333332763, 25.081249999999407 ], [ 92.106249999999449, 25.081249999999404 ], [ 92.085416666666106, 25.060416666666075 ], [ 92.081249999999443, 25.060416666666079 ], [ 92.06874999999944, 25.047916666666076 ], [ 92.056249999999437, 25.047916666666072 ], [ 92.027083333332769, 25.018749999999415 ] ] } },
{ "type": "Feature", "properties": { "ARCID": 742066, "UP_CELLS": 1299, "buffer_m": 80 }, "geometry": { "type": "LineString", "coordinates": [ [ 92.322916666666103, 25.014583333332741 ], [ 92.318749999999426, 25.018749999999415 ], [ 92.314583333332763, 25.018749999999411 ], [ 92.306249999999437, 25.027083333332744 ], [ 92.302083333332774, 25.027083333332747 ], [ 92.297916666666097, 25.031249999999403 ], [ 92.293749999999434, 25.031249999999407 ] ] } },
{ "type": "Feature", "properties": { "ARCID": 742132, "UP_CELLS": 7449, "buffer_m": 150 }, "geometry": { "type": "LineString", "coordinates": [ [ 91.931249999999437, 25.010416666666082 ], [ 91.914583333332786, 25.010416666666082 ] ] } },
{ "type": "Feature", "properties": { "ARCID": 742133, "UP_CELLS": 1614, "buffer_m": 80 }, "geometry": { "type": "LineString", "coordinates": [ [ 92.035416666666094, 25.114583333332739 ], [ 92.031249999999432, 25.110416666666072 ], [ 92.00624999999944, 25.110416666666069 ], [ 92.002083333332763, 25.106249999999413 ], [ 91.9979166666661, 25.10624999999941 ], [ 91.981249999999449, 25.089583333332744 ], [ 91.985416666666111, 25.085416666666077 ], [ 91.985416666666111, 25.068749999999412 ], [ 91.981249999999449, 25.064583333332731 ], [ 91.977083333332772, 25.068749999999408 ], [ 91.972916666666109, 25.064583333332742 ], [ 91.968749999999432, 25.064583333332738 ], [ 91.964583333332783, 25.060416666666075 ], [ 91.964583333332783, 25.056249999999409 ], [ 91.956249999999443, 25.047916666666076 ], [ 91.956249999999443, 25.04374999999941 ], [ 91.947916666666103, 25.03541666666608 ], [ 91.947916666666103, 25.027083333332744 ], [ 91.939583333332763, 25.018749999999407 ], [ 91.9354166666661, 25.018749999999411 ], [ 91.931249999999437, 25.014583333332745 ], [ 91.931249999999437, 25.010416666666082 ] ] } },
{ "type": "Feature", "properties": { "ARCID": 742198, "UP_CELLS": 32022, "buffer_m": 150 }, "geometry": { "type": "LineString", "coordinates": [ [ 91.606249999999449, 25.006249999999408 ], [ 91.606249999999449, 25.018749999999411 ], [ 91.602083333332786, 25.022916666666077 ], [ 91.577083333332794, 25.022916666666077 ] ] } },
{ "type": "Feature", "properties": { "ARCID": 742199, "UP_CELLS": 5755, "buffer_m": 150 }, "geometry": { "type": "LineString", "coordinates": [ [ 92.027083333332769, 25.018749999999415 ], [ 92.022916666666106, 25.018749999999415 ], [ 92.01458333333278, 25.010416666666082 ], [ 92.00624999999944, 25.010416666666085 ], [ 92.002083333332763, 25.006249999999408 ], [ 91.989583333332774, 25.006249999999412 ], [ 91.985416666666111, 25.010416666666085 ], [ 91.931249999999437, 25.010416666666082 ] ] } },
{ "type": "Feature", "properties": { "ARCID": 742200, "UP_CELLS": 1135, "buffer_m": 80 }, "geometry": { "type": "LineString", "coordinates": [ [ 92.331249999999443, 25.006249999999412 ], [ 92.322916666666103, 25.014583333332741 ] ] } },
{ "type": "Feature", "properties": { "ARCID": 742274, "UP_CELLS": 31712, "buffer_m": 150 }, "geometry": { "type": "LineString", "coordinates": [ [ 91.647916666666106, 25.027083333332744 ], [ 91.631249999999454, 25.010416666666082 ], [ 91.627083333332791, 25.010416666666082 ], [ 91.622916666666129, 25.006249999999412 ], [ 91.618749999999437, 25.006249999999408 ], [ 91.614583333332774, 25.002083333332749 ], [ 91.610416666666111, 25.002083333332749 ], [ 91.606249999999449, 25.006249999999408 ] ] } },
{ "type": "Feature", "properties": { "ARCID": 742275, "UP_CELLS": 19309, "buffer_m": 150 }, "geometry": { "type": "LineString", "coordinates": [ [ 91.69374999999944, 25.002083333332742 ], [ 91.681249999999437, 25.014583333332745 ], [ 91.681249999999437, 25.018749999999415 ], [ 91.6854166666661, 25.022916666666081 ], [ 91.681249999999437, 25.027083333332747 ], [ 91.681249999999437, 25.03124999999941 ], [ 91.672916666666126, 25.039583333332743 ] ] } },
{ "type": "Feature", "properties": { "ARCID": 742277, "UP_CELLS": 1024, "buffer_m": 80 }, "geometry": { "type": "LineString", "coordinates": [ [ 92.381249999999426, 25.002083333332745 ], [ 92.368749999999437, 25.014583333332745 ], [ 92.364583333332774, 25.014583333332745 ], [ 92.360416666666097, 25.010416666666082 ], [ 92.339583333332769, 25.010416666666082 ], [ 92.335416666666106, 25.006249999999408 ], [ 92.331249999999443, 25.006249999999412 ] ] } },
{ "type": "Feature", "properties": { "ARCID": 742337, "UP_CELLS": 7946, "buffer_m": 150 }, "geometry": { "type": "LineString", "coordinates": [ [ 91.914583333332786, 25.010416666666082 ], [ 91.906249999999432, 25.010416666666082 ], [ 91.902083333332769, 25.006249999999412 ], [ 91.897916666666106, 25.006249999999408 ], [ 91.88958333333278, 24.997916666666075 ] ] } },
{ "type": "Feature", "properties": { "ARCID": 742465, "UP_CELLS": 780, "buffer_m": 80 }, "geometry": { "type": "LineString", "coordinates": [ [ 92.414583333332757, 24.989583333332746 ], [ 92.393749999999429, 24.989583333332742 ], [ 92.381249999999426, 25.002083333332745 ] ] } },
{ "type": "Feature", "properties": { "ARCID": 742531, "UP_CELLS": 730, "buffer_m": 80 }, "geometry": { "type": "LineString", "coordinates": [ [ 92.064583333332763, 24.985416666666076 ], [ 92.064583333332763, 24.993749999999409 ], [ 92.047916666666111, 25.010416666666085 ], [ 92.043749999999434, 25.010416666666085 ], [ 92.039583333332772, 25.014583333332752 ], [ 92.031249999999432, 25.014583333332745 ], [ 92.027083333332769, 25.018749999999415 ] ] } },
{ "type": "Feature", "properties": { "ARCID": 742698, "UP_CELLS": 19052, "buffer_m": 150 }, "geometry": { "type": "LineString", "coordinates": [ [ 91.710416666666106, 24.977083333332743 ], [ 91.70208333333278, 24.985416666666076 ], [ 91.70208333333278, 25.002083333332749 ], [ 91.697916666666117, 25.006249999999415 ], [ 91.69374999999944, 25.002083333332742 ] ] } },
{ "type": "Feature", "properties": { "ARCID": 742767, "UP_CELLS": 9109, "buffer_m": 150 }, "geometry": { "type": "LineString", "coordinates": [ [ 91.718749999999446, 24.972916666666073 ], [ 91.714583333332769, 24.97291666666608 ], [ 91.710416666666106, 24.977083333332743 ] ] } },
{ "type": "Feature", "properties": { "ARCID": 742770, "UP_CELLS": 5598, "buffer_m": 150 }, "geometry": { "type": "LineString", "coordinates": [ [ 92.281249999999432, 25.031249999999407 ], [ 92.272916666666106, 25.022916666666081 ], [ 92.272916666666106, 25.006249999999412 ], [ 92.264583333332766, 24.997916666666079 ], [ 92.264583333332766, 24.985416666666072 ], [ 92.25624999999944, 24.977083333332743 ], [ 92.252083333332777, 24.97708333333274 ], [ 92.2479166666661, 24.97291666666608 ] ] } },
{ "type": "Feature", "properties": { "ARCID": 742975, "UP_CELLS": 622, "buffer_m": 80 }, "geometry": { "type": "LineString", "coordinates": [ [ 92.193749999999426, 24.97708333333274 ], [ 92.193749999999426, 24.972916666666077 ], [ 92.206249999999443, 24.960416666666077 ], [ 92.218749999999432, 24.960416666666077 ] ] } },
{ "type": "Feature", "properties": { "ARCID": 742976, "UP_CELLS": 5822, "buffer_m": 150 }, "geometry": { "type": "LineString", "coordinates": [ [ 92.2479166666661, 24.97291666666608 ], [ 92.243749999999437, 24.972916666666077 ], [ 92.239583333332774, 24.96874999999941 ], [ 92.239583333332774, 24.964583333332744 ], [ 92.235416666666111, 24.960416666666077 ], [ 92.227083333332772, 24.960416666666074 ], [ 92.222916666666094, 24.964583333332744 ], [ 92.218749999999432, 24.960416666666077 ] ] } },
{ "type": "Feature", "properties": { "ARCID": 743352, "UP_CELLS": 8819, "buffer_m": 150 }, "geometry": { "type": "LineString", "coordinates": [ [ 91.88958333333278, 24.997916666666075 ], [ 91.885416666666117, 24.997916666666079 ], [ 91.88124999999944, 24.993749999999405 ], [ 91.877083333332777, 24.993749999999412 ], [ 91.8729166666661, 24.989583333332742 ], [ 91.852083333332772, 24.989583333332742 ], [ 91.847916666666109, 24.985416666666072 ], [ 91.843749999999432, 24.985416666666069 ], [ 91.835416666666106, 24.977083333332743 ], [ 91.835416666666106, 24.972916666666077 ], [ 91.818749999999454, 24.956249999999415 ], [ 91.814583333332777, 24.956249999999415 ], [ 91.806249999999437, 24.947916666666082 ], [ 91.789583333332786, 24.947916666666078 ], [ 91.781249999999432, 24.939583333332745 ], [ 91.777083333332769, 24.939583333332745 ], [ 91.772916666666106, 24.943749999999412 ], [ 91.743749999999437, 24.943749999999415 ], [ 91.718749999999446, 24.96874999999941 ], [ 91.718749999999446, 24.972916666666073 ] ] } },
{ "type": "Feature", "properties": { "ARCID": 743501, "UP_CELLS": 9814, "buffer_m": 150 }, "geometry": { "type": "LineString", "coordinates": [ [ 91.70208333333278, 24.931249999999416 ], [ 91.70208333333278, 24.943749999999415 ], [ 91.706249999999443, 24.947916666666078 ], [ 91.706249999999443, 24.960416666666074 ], [ 91.710416666666106, 24.964583333332744 ], [ 91.710416666666106, 24.977083333332743 ] ] } },
{ "type": "Feature", "properties": { "ARCID": 743653, "UP_CELLS": 585, "buffer_m": 80 }, "geometry": { "type": "LineString", "coordinates": [ [ 92.554166666666106, 25.058333333332747 ], [ 92.547916666666097, 25.052083333332739 ], [ 92.547916666666097, 25.047916666666076 ], [ 92.527083333332769, 25.027083333332744 ], [ 92.522916666666106, 25.027083333332744 ], [ 92.510416666666089, 25.014583333332741 ], [ 92.510416666666089, 25.010416666666082 ], [ 92.506249999999426, 25.006249999999408 ], [ 92.510416666666089, 25.002083333332752 ], [ 92.518749999999429, 25.002083333332749 ], [ 92.522916666666106, 24.997916666666082 ], [ 92.522916666666106, 24.985416666666072 ], [ 92.518749999999429, 24.985416666666072 ], [ 92.514583333332766, 24.981249999999406 ], [ 92.502083333332763, 24.98124999999941 ], [ 92.4979166666661, 24.97708333333274 ], [ 92.4979166666661, 24.96458333333274 ], [ 92.489583333332789, 24.956249999999415 ], [ 92.493749999999437, 24.952083333332745 ], [ 92.489583333332789, 24.947916666666082 ], [ 92.489583333332789, 24.943749999999408 ], [ 92.485416666666097, 24.939583333332742 ], [ 92.485416666666097, 24.927083333332746 ], [ 92.489583333332789, 24.92291666666608 ] ] } },
{ "type": "Feature", "properties": { "ARCID": 743654, "UP_CELLS": 869, "buffer_m": 80 }, "geometry": { "type": "LineString", "coordinates": [ [ 92.631249999999426, 25.052083333332746 ], [ 92.6229166666661, 25.04374999999941 ], [ 92.6229166666661, 25.027083333332744 ], [ 92.627083333332763, 25.022916666666081 ], [ 92.627083333332763, 25.014583333332745 ], [ 92.61458333333276, 25.002083333332745 ], [ 92.60624999999942, 25.002083333332738 ], [ 92.602083333332757, 24.997916666666079 ], [ 92.597916666666094, 24.997916666666079 ], [ 92.593749999999432, 25.002083333332749 ], [ 92.58541666666612, 24.993749999999409 ], [ 92.568749999999426, 24.993749999999409 ], [ 92.539583333332757, 24.964583333332744 ], [ 92.522916666666106, 24.964583333332744 ], [ 92.506249999999426, 24.947916666666085 ], [ 92.502083333332763, 24.947916666666082 ], [ 92.4979166666661, 24.943749999999408 ], [ 92.4979166666661, 24.935416666666075 ], [ 92.489583333332789, 24.927083333332742 ], [ 92.489583333332789, 24.92291666666608 ] ] } },
{ "type": "Feature", "properties": { "ARCID": 744177, "UP_CELLS": 9399, "buffer_m": 150 }, "geometry": { "type": "LineString", "coordinates": [ [ 91.760416666666117, 24.889583333332745 ], [ 91.75624999999944, 24.893749999999415 ], [ 91.75624999999944, 24.902083333332747 ], [ 91.752083333332777, 24.90624999999941 ], [ 91.735416666666111, 24.906249999999407 ], [ 91.735416666666111, 24.914583333332747 ], [ 91.731249999999449, 24.918749999999413 ], [ 91.714583333332769, 24.918749999999413 ], [ 91.70208333333278, 24.931249999999416 ] ] } },
{ "type": "Feature", "properties": { "ARCID": 744178, "UP_CELLS": 9001, "buffer_m": 150 }, "geometry": { "type": "LineString", "coordinates": [ [ 91.797916666666111, 24.906249999999407 ], [ 91.789583333332786, 24.897916666666077 ], [ 91.781249999999432, 24.897916666666077 ], [ 91.777083333332769, 24.893749999999415 ], [ 91.772916666666106, 24.893749999999407 ], [ 91.768749999999457, 24.889583333332737 ], [ 91.760416666666117, 24.889583333332745 ] ] } },
{ "type": "Feature", "properties": { "ARCID": 744362, "UP_CELLS": 1596, "buffer_m": 80 }, "geometry": { "type": "LineString", "coordinates": [ [ 92.489583333332789, 24.92291666666608 ], [ 92.493749999999437, 24.918749999999413 ], [ 92.493749999999437, 24.914583333332747 ], [ 92.4979166666661, 24.91041666666608 ], [ 92.4979166666661, 24.902083333332747 ], [ 92.493749999999437, 24.897916666666077 ], [ 92.493749999999437, 24.877083333332749 ] ] } },
{ "type": "Feature", "properties": { "ARCID": 744363, "UP_CELLS": 131121, "buffer_m": 250 }, "geometry": { "type": "LineString", "coordinates": [ [ 92.518749999999429, 24.877083333332749 ], [ 92.514583333332766, 24.881249999999408 ], [ 92.4979166666661, 24.881249999999408 ], [ 92.493749999999437, 24.877083333332749 ] ] } },
{ "type": "Feature", "properties": { "ARCID": 744419, "UP_CELLS": 8752, "buffer_m": 150 }, "geometry": { "type": "LineString", "coordinates": [ [ 91.902083333332769, 24.872916666666075 ], [ 91.897916666666106, 24.877083333332752 ], [ 91.877083333332777, 24.877083333332752 ], [ 91.8729166666661, 24.872916666666079 ], [ 91.864583333332789, 24.872916666666075 ], [ 91.856249999999449, 24.881249999999408 ], [ 91.843749999999432, 24.881249999999408 ], [ 91.839583333332769, 24.877083333332752 ], [ 91.835416666666106, 24.877083333332749 ], [ 91.82708333333278, 24.885416666666078 ], [ 91.82708333333278, 24.889583333332741 ], [ 91.822916666666117, 24.893749999999411 ], [ 91.818749999999454, 24.893749999999415 ], [ 91.814583333332777, 24.897916666666077 ], [ 91.806249999999437, 24.897916666666077 ], [ 91.797916666666111, 24.906249999999407 ] ] } },
{ "type": "Feature", "properties": { "ARCID": 744420, "UP_CELLS": 8255, "buffer_m": 150 }, "geometry": { "type": "LineString", "coordinates": [ [ 91.927083333332774, 24.872916666666079 ], [ 91.902083333332769, 24.872916666666075 ] ] } },
{ "type": "Feature", "properties": { "ARCID": 744568, "UP_CELLS": 7734, "buffer_m": 150 }, "geometry": { "type": "LineString", "coordinates": [ [ 91.956249999999443, 24.864583333332746 ], [ 91.94374999999944, 24.864583333332742 ], [ 91.939583333332763, 24.868749999999412 ], [ 91.931249999999437, 24.868749999999416 ], [ 91.927083333332774, 24.872916666666079 ] ] } },
{ "type": "Feature", "properties": { "ARCID": 744634, "UP_CELLS": 7587, "buffer_m": 150 }, "geometry": { "type": "LineString", "coordinates": [ [ 91.989583333332774, 24.860416666666083 ], [ 91.985416666666111, 24.864583333332746 ], [ 91.956249999999443, 24.864583333332746 ] ] } },
{ "type": "Feature", "properties": { "ARCID": 744635, "UP_CELLS": 7381, "buffer_m": 150 }, "geometry": { "type": "LineString", "coordinates": [ [ 92.218749999999432, 24.960416666666077 ], [ 92.218749999999432, 24.956249999999418 ], [ 92.222916666666094, 24.952083333332748 ], [ 92.222916666666094, 24.947916666666078 ], [ 92.218749999999432, 24.943749999999408 ], [ 92.206249999999443, 24.943749999999405 ], [ 92.202083333332766, 24.939583333332745 ], [ 92.189583333332763, 24.939583333332742 ], [ 92.1854166666661, 24.935416666666072 ], [ 92.181249999999437, 24.935416666666072 ], [ 92.177083333332774, 24.931249999999416 ], [ 92.168749999999434, 24.931249999999412 ], [ 92.160416666666094, 24.92291666666608 ], [ 92.160416666666094, 24.918749999999406 ], [ 92.156249999999446, 24.918749999999413 ], [ 92.147916666666106, 24.91041666666608 ], [ 92.135416666666103, 24.910416666666077 ], [ 92.131249999999426, 24.90624999999941 ], [ 92.118749999999437, 24.906249999999414 ], [ 92.106249999999449, 24.893749999999418 ], [ 92.097916666666094, 24.893749999999415 ], [ 92.093749999999432, 24.897916666666074 ], [ 92.081249999999443, 24.897916666666074 ], [ 92.07708333333278, 24.902083333332751 ], [ 92.06874999999944, 24.902083333332747 ], [ 92.056249999999437, 24.889583333332748 ], [ 92.035416666666094, 24.889583333332737 ], [ 92.031249999999432, 24.885416666666085 ], [ 92.031249999999432, 24.881249999999408 ], [ 92.022916666666106, 24.872916666666075 ], [ 92.01458333333278, 24.872916666666079 ], [ 92.002083333332763, 24.86041666666608 ], [ 91.989583333332774, 24.860416666666083 ] ] } },
{ "type": "Feature", "properties": { "ARCID": 744713, "UP_CELLS": 144692, "buffer_m": 250 }, "geometry": { "type": "LineString", "coordinates": [ [ 92.302083333332774, 24.914583333332747 ], [ 92.289583333332757, 24.91458333333275 ], [ 92.281249999999432, 24.90624999999941 ], [ 92.25624999999944, 24.906249999999414 ], [ 92.252083333332777, 24.910416666666077 ], [ 92.243749999999437, 24.910416666666077 ], [ 92.235416666666111, 24.902083333332747 ], [ 92.227083333332772, 24.902083333332747 ], [ 92.222916666666094, 24.897916666666074 ], [ 92.218749999999432, 24.897916666666077 ], [ 92.214583333332769, 24.893749999999411 ], [ 92.214583333332769, 24.889583333332745 ], [ 92.210416666666106, 24.885416666666082 ], [ 92.197916666666103, 24.885416666666082 ], [ 92.193749999999426, 24.881249999999408 ], [ 92.189583333332763, 24.881249999999408 ], [ 92.181249999999437, 24.872916666666079 ], [ 92.181249999999437, 24.86041666666608 ], [ 92.177083333332774, 24.85624999999941 ], [ 92.172916666666111, 24.86041666666608 ], [ 92.168749999999434, 24.86041666666608 ], [ 92.164583333332772, 24.864583333332742 ], [ 92.156249999999446, 24.856249999999413 ] ] } },
{ "type": "Feature", "properties": { "ARCID": 744714, "UP_CELLS": 144028, "buffer_m": 250 }, "geometry": { "type": "LineString", "coordinates": [ [ 92.385416666666089, 24.85624999999941 ], [ 92.385416666666089, 24.86041666666608 ], [ 92.3729166666661, 24.872916666666079 ], [ 92.364583333332774, 24.872916666666072 ], [ 92.352083333332772, 24.885416666666082 ], [ 92.352083333332772, 24.889583333332741 ], [ 92.347916666666094, 24.893749999999407 ], [ 92.343749999999432, 24.889583333332741 ], [ 92.343749999999432, 24.885416666666078 ], [ 92.339583333332769, 24.881249999999408 ], [ 92.322916666666103, 24.897916666666074 ], [ 92.314583333332763, 24.897916666666074 ], [ 92.306249999999437, 24.90624999999941 ], [ 92.306249999999437, 24.91041666666608 ], [ 92.302083333332774, 24.914583333332747 ] ] } },
{ "type": "Feature", "properties": { "ARCID": 744715, "UP_CELLS": 132940, "buffer_m": 250 }, "geometry": { "type": "LineString", "coordinates": [ [ 92.493749999999437, 24.877083333332749 ], [ 92.48124999999942, 24.864583333332742 ], [ 92.477083333332757, 24.864583333332742 ], [ 92.472916666666094, 24.868749999999419 ], [ 92.468749999999432, 24.868749999999423 ], [ 92.464583333332769, 24.872916666666075 ], [ 92.447916666666103, 24.872916666666075 ], [ 92.439583333332763, 24.864583333332742 ], [ 92.439583333332763, 24.860416666666083 ], [ 92.4354166666661, 24.856249999999417 ], [ 92.431249999999437, 24.85624999999941 ] ] } },
{ "type": "Feature", "properties": { "ARCID": 744780, "UP_CELLS": 137102, "buffer_m": 250 }, "geometry": { "type": "LineString", "coordinates": [ [ 92.431249999999437, 24.85624999999941 ], [ 92.414583333332757, 24.85624999999941 ], [ 92.410416666666094, 24.86041666666608 ], [ 92.402083333332769, 24.85208333333275 ], [ 92.389583333332766, 24.85208333333275 ], [ 92.385416666666089, 24.85624999999941 ] ] } },
{ "type": "Feature", "properties": { "ARCID": 745394, "UP_CELLS": 1631, "buffer_m": 80 }, "geometry": { "type": "LineString", "coordinates": [ [ 91.606249999999449, 24.814583333332752 ], [ 91.589583333332769, 24.814583333332749 ], [ 91.585416666666106, 24.818749999999415 ], [ 91.568749999999454, 24.818749999999412 ], [ 91.564583333332777, 24.822916666666078 ], [ 91.535416666666123, 24.822916666666078 ], [ 91.531249999999446, 24.827083333332748 ], [ 91.522916666666106, 24.827083333332748 ], [ 91.518749999999443, 24.822916666666082 ], [ 91.51458333333278, 24.822916666666082 ], [ 91.506249999999454, 24.831249999999418 ], [ 91.506249999999454, 24.839583333332747 ] ] } },
{ "type": "Feature", "properties": { "ARCID": 745474, "UP_CELLS": 903, "buffer_m": 80 }, "geometry": { "type": "LineString", "coordinates": [ [ 91.643749999999443, 24.810416666666075 ], [ 91.622916666666129, 24.810416666666079 ], [ 91.618749999999437, 24.814583333332749 ], [ 91.606249999999449, 24.814583333332752 ] ] } },
{ "type": "Feature", "properties": { "ARCID": 745475, "UP_CELLS": 1031, "buffer_m": 80 }, "geometry": { "type": "LineString", "coordinates": [ [ 92.218749999999432, 24.810416666666082 ], [ 92.214583333332769, 24.814583333332742 ], [ 92.206249999999443, 24.814583333332749 ], [ 92.202083333332766, 24.818749999999415 ], [ 92.202083333332766, 24.822916666666082 ], [ 92.177083333332774, 24.84791666666608 ], [ 92.172916666666111, 24.84791666666608 ], [ 92.168749999999434, 24.852083333332743 ], [ 92.164583333332772, 24.852083333332747 ], [ 92.160416666666094, 24.85624999999941 ], [ 92.156249999999446, 24.856249999999413 ] ] } },
{ "type": "Feature", "properties": { "ARCID": 745476, "UP_CELLS": 545, "buffer_m": 80 }, "geometry": { "type": "LineString", "coordinates": [ [ 92.295833333332766, 24.856249999999413 ], [ 92.289583333332757, 24.85624999999941 ], [ 92.281249999999432, 24.84791666666608 ], [ 92.260416666666103, 24.847916666666084 ], [ 92.25624999999944, 24.843749999999417 ], [ 92.25624999999944, 24.839583333332751 ], [ 92.252083333332777, 24.835416666666081 ], [ 92.252083333332777, 24.831249999999415 ], [ 92.2479166666661, 24.827083333332748 ], [ 92.2479166666661, 24.822916666666078 ], [ 92.239583333332774, 24.814583333332749 ], [ 92.222916666666094, 24.814583333332745 ], [ 92.218749999999432, 24.810416666666082 ] ] } },
{ "type": "Feature", "properties": { "ARCID": 745539, "UP_CELLS": 707, "buffer_m": 80 }, "geometry": { "type": "LineString", "coordinates": [ [ 91.672916666666126, 24.806249999999416 ], [ 91.668749999999449, 24.806249999999416 ], [ 91.664583333332786, 24.810416666666079 ], [ 91.643749999999443, 24.810416666666075 ] ] } },
{ "type": "Feature", "properties": { "ARCID": 745742, "UP_CELLS": 146219, "buffer_m": 250 }, "geometry": { "type": "LineString", "coordinates": [ [ 92.156249999999446, 24.856249999999413 ], [ 92.135416666666103, 24.85624999999941 ], [ 92.127083333332763, 24.864583333332742 ], [ 92.118749999999437, 24.864583333332739 ], [ 92.114583333332774, 24.868749999999409 ], [ 92.110416666666111, 24.864583333332739 ], [ 92.097916666666094, 24.864583333332746 ], [ 92.093749999999432, 24.860416666666083 ], [ 92.093749999999432, 24.856249999999413 ], [ 92.085416666666106, 24.847916666666073 ], [ 92.085416666666106, 24.84374999999941 ], [ 92.07708333333278, 24.835416666666088 ], [ 92.07708333333278, 24.831249999999415 ], [ 92.06874999999944, 24.822916666666078 ], [ 92.06874999999944, 24.814583333332749 ], [ 92.072916666666103, 24.810416666666072 ], [ 92.072916666666103, 24.802083333332742 ], [ 92.064583333332763, 24.79374999999941 ] ] } },
{ "type": "Feature", "properties": { "ARCID": 745873, "UP_CELLS": 6736, "buffer_m": 150 }, "geometry": { "type": "LineString", "coordinates": [ [ 92.360416666666097, 24.785416666666077 ], [ 92.356249999999434, 24.789583333332743 ], [ 92.356249999999434, 24.822916666666082 ], [ 92.360416666666097, 24.827083333332748 ], [ 92.360416666666097, 24.831249999999415 ], [ 92.364583333332774, 24.835416666666088 ], [ 92.368749999999437, 24.835416666666084 ], [ 92.385416666666089, 24.852083333332747 ], [ 92.385416666666089, 24.85624999999941 ] ] } },
{ "type": "Feature", "properties": { "ARCID": 746220, "UP_CELLS": 6203, "buffer_m": 150 }, "geometry": { "type": "LineString", "coordinates": [ [ 92.347916666666094, 24.764583333332752 ], [ 92.347916666666094, 24.768749999999418 ], [ 92.356249999999434, 24.77708333333274 ], [ 92.356249999999434, 24.781249999999417 ], [ 92.360416666666097, 24.785416666666077 ] ] } },
{ "type": "Feature", "properties": { "ARCID": 746502, "UP_CELLS": 4070, "buffer_m": 80 }, "geometry": { "type": "LineString", "coordinates": [ [ 92.464583333332769, 24.747916666666082 ], [ 92.464583333332769, 24.756249999999422 ], [ 92.460416666666106, 24.760416666666082 ], [ 92.456249999999429, 24.760416666666082 ], [ 92.443749999999426, 24.772916666666084 ], [ 92.443749999999426, 24.802083333332739 ], [ 92.4354166666661, 24.810416666666075 ], [ 92.4354166666661, 24.822916666666085 ], [ 92.431249999999437, 24.827083333332748 ], [ 92.4354166666661, 24.831249999999411 ], [ 92.4354166666661, 24.839583333332751 ], [ 92.431249999999437, 24.843749999999417 ], [ 92.431249999999437, 24.85624999999941 ] ] } },
{ "type": "Feature", "properties": { "ARCID": 746651, "UP_CELLS": 6003, "buffer_m": 150 }, "geometry": { "type": "LineString", "coordinates": [ [ 92.339583333332769, 24.739583333332753 ], [ 92.347916666666094, 24.747916666666086 ], [ 92.347916666666094, 24.752083333332745 ], [ 92.343749999999432, 24.756249999999422 ], [ 92.347916666666094, 24.760416666666085 ], [ 92.347916666666094, 24.764583333332752 ] ] } },
{ "type": "Feature", "properties": { "ARCID": 746908, "UP_CELLS": 5799, "buffer_m": 150 }, "geometry": { "type": "LineString", "coordinates": [ [ 92.335416666666106, 24.722916666666084 ], [ 92.335416666666106, 24.731249999999406 ], [ 92.339583333332769, 24.73541666666608 ], [ 92.339583333332769, 24.739583333332753 ] ] } },
{ "type": "Feature", "properties": { "ARCID": 747029, "UP_CELLS": 3668, "buffer_m": 80 }, "geometry": { "type": "LineString", "coordinates": [ [ 92.443749999999426, 24.714583333332747 ], [ 92.447916666666103, 24.718749999999414 ], [ 92.452083333332766, 24.718749999999421 ], [ 92.452083333332766, 24.72291666666608 ], [ 92.464583333332769, 24.735416666666083 ], [ 92.464583333332769, 24.747916666666082 ] ] } },
{ "type": "Feature", "properties": { "ARCID": 747101, "UP_CELLS": 147169, "buffer_m": 250 }, "geometry": { "type": "LineString", "coordinates": [ [ 92.064583333332763, 24.79374999999941 ], [ 92.056249999999437, 24.793749999999406 ], [ 92.052083333332774, 24.789583333332747 ], [ 92.052083333332774, 24.785416666666077 ], [ 92.047916666666111, 24.781249999999417 ], [ 92.047916666666111, 24.772916666666081 ], [ 92.056249999999437, 24.764583333332748 ], [ 92.052083333332774, 24.760416666666085 ], [ 92.047916666666111, 24.760416666666078 ], [ 92.043749999999434, 24.756249999999426 ], [ 92.043749999999434, 24.752083333332749 ], [ 92.047916666666111, 24.747916666666082 ], [ 92.047916666666111, 24.739583333332757 ], [ 92.035416666666094, 24.727083333332747 ], [ 92.027083333332769, 24.735416666666083 ], [ 92.022916666666106, 24.73541666666608 ], [ 92.018749999999443, 24.731249999999413 ], [ 92.01458333333278, 24.731249999999413 ], [ 92.002083333332763, 24.718749999999417 ], [ 91.9979166666661, 24.718749999999414 ], [ 91.993749999999437, 24.722916666666087 ], [ 91.981249999999449, 24.710416666666084 ] ] } },
{ "type": "Feature", "properties": { "ARCID": 747227, "UP_CELLS": 154997, "buffer_m": 250 }, "geometry": { "type": "LineString", "coordinates": [ [ 91.981249999999449, 24.710416666666084 ], [ 91.972916666666109, 24.710416666666084 ], [ 91.968749999999432, 24.706249999999415 ], [ 91.964583333332783, 24.710416666666084 ], [ 91.956249999999443, 24.710416666666084 ], [ 91.947916666666103, 24.702083333332748 ], [ 91.9354166666661, 24.702083333332748 ] ] } },
{ "type": "Feature", "properties": { "ARCID": 747228, "UP_CELLS": 7676, "buffer_m": 150 }, "geometry": { "type": "LineString", "coordinates": [ [ 92.060416666666114, 24.702083333332748 ], [ 92.056249999999437, 24.706249999999407 ], [ 92.052083333332774, 24.706249999999407 ], [ 92.047916666666111, 24.710416666666081 ], [ 92.027083333332769, 24.710416666666084 ], [ 92.022916666666106, 24.706249999999411 ], [ 92.00624999999944, 24.706249999999411 ], [ 92.002083333332763, 24.702083333332752 ], [ 91.989583333332774, 24.702083333332745 ], [ 91.981249999999449, 24.710416666666084 ] ] } },
{ "type": "Feature", "properties": { "ARCID": 747230, "UP_CELLS": 3356, "buffer_m": 80 }, "geometry": { "type": "LineString", "coordinates": [ [ 92.4354166666661, 24.702083333332752 ], [ 92.439583333332763, 24.706249999999404 ], [ 92.439583333332763, 24.710416666666081 ], [ 92.443749999999426, 24.714583333332747 ] ] } },
{ "type": "Feature", "properties": { "ARCID": 747282, "UP_CELLS": 5650, "buffer_m": 150 }, "geometry": { "type": "LineString", "coordinates": [ [ 92.331249999999443, 24.697916666666085 ], [ 92.331249999999443, 24.718749999999417 ], [ 92.335416666666106, 24.722916666666084 ] ] } },
{ "type": "Feature", "properties": { "ARCID": 747438, "UP_CELLS": 721, "buffer_m": 80 }, "geometry": { "type": "LineString", "coordinates": [ [ 91.745833333332769, 24.76249999999941 ], [ 91.727083333332786, 24.743749999999416 ], [ 91.722916666666123, 24.743749999999412 ], [ 91.718749999999446, 24.747916666666082 ], [ 91.714583333332769, 24.747916666666079 ], [ 91.710416666666106, 24.752083333332745 ], [ 91.706249999999443, 24.752083333332749 ], [ 91.69374999999944, 24.739583333332753 ], [ 91.689583333332777, 24.743749999999412 ], [ 91.6854166666661, 24.743749999999416 ], [ 91.681249999999437, 24.73958333333275 ], [ 91.660416666666109, 24.739583333332753 ], [ 91.652083333332769, 24.731249999999417 ], [ 91.647916666666106, 24.73124999999941 ], [ 91.631249999999454, 24.714583333332747 ], [ 91.627083333332791, 24.714583333332744 ], [ 91.622916666666129, 24.718749999999414 ], [ 91.614583333332774, 24.718749999999417 ], [ 91.602083333332786, 24.706249999999411 ], [ 91.602083333332786, 24.702083333332752 ], [ 91.593749999999446, 24.693749999999415 ], [ 91.589583333332769, 24.693749999999412 ], [ 91.585416666666106, 24.689583333332749 ], [ 91.577083333332794, 24.689583333332749 ] ] } },
{ "type": "Feature", "properties": { "ARCID": 747440, "UP_CELLS": 155403, "buffer_m": 250 }, "geometry": { "type": "LineString", "coordinates": [ [ 91.9354166666661, 24.702083333332748 ], [ 91.927083333332774, 24.693749999999415 ], [ 91.922916666666111, 24.693749999999419 ], [ 91.918749999999449, 24.689583333332752 ] ] } },
{ "type": "Feature", "properties": { "ARCID": 747441, "UP_CELLS": 7382, "buffer_m": 150 }, "geometry": { "type": "LineString", "coordinates": [ [ 92.072916666666103, 24.689583333332742 ], [ 92.072916666666103, 24.693749999999415 ], [ 92.06874999999944, 24.697916666666085 ], [ 92.064583333332763, 24.697916666666085 ], [ 92.060416666666114, 24.702083333332748 ] ] } },
{ "type": "Feature", "properties": { "ARCID": 747639, "UP_CELLS": 1073, "buffer_m": 80 }, "geometry": { "type": "LineString", "coordinates": [ [ 92.097916666666094, 24.677083333332746 ], [ 92.085416666666106, 24.677083333332753 ], [ 92.081249999999443, 24.681249999999412 ], [ 92.081249999999443, 24.685416666666086 ], [ 92.07708333333278, 24.689583333332745 ], [ 92.072916666666103, 24.689583333332742 ] ] } },
{ "type": "Feature", "properties": { "ARCID": 747640, "UP_CELLS": 532, "buffer_m": 80 }, "geometry": { "type": "LineString", "coordinates": [ [ 92.208333333332774, 24.691666666666084 ], [ 92.202083333332766, 24.697916666666082 ], [ 92.202083333332766, 24.702083333332748 ], [ 92.197916666666103, 24.706249999999411 ], [ 92.202083333332766, 24.710416666666084 ], [ 92.197916666666103, 24.714583333332744 ], [ 92.189583333332763, 24.71458333333274 ], [ 92.181249999999437, 24.72291666666608 ], [ 92.177083333332774, 24.72291666666608 ], [ 92.172916666666111, 24.727083333332747 ], [ 92.156249999999446, 24.710416666666084 ], [ 92.152083333332769, 24.714583333332747 ], [ 92.147916666666106, 24.714583333332747 ], [ 92.143749999999443, 24.710416666666088 ], [ 92.143749999999443, 24.706249999999411 ], [ 92.127083333332763, 24.689583333332752 ], [ 92.114583333332774, 24.689583333332749 ], [ 92.102083333332772, 24.677083333332746 ], [ 92.097916666666094, 24.677083333332746 ] ] } },
{ "type": "Feature", "properties": { "ARCID": 747699, "UP_CELLS": 156007, "buffer_m": 250 }, "geometry": { "type": "LineString", "coordinates": [ [ 91.918749999999449, 24.689583333332752 ], [ 91.914583333332786, 24.685416666666086 ], [ 91.914583333332786, 24.677083333332746 ], [ 91.910416666666109, 24.672916666666087 ] ] } },
{ "type": "Feature", "properties": { "ARCID": 747759, "UP_CELLS": 509, "buffer_m": 80 }, "geometry": { "type": "LineString", "coordinates": [ [ 92.097916666666094, 24.668749999999417 ], [ 92.097916666666094, 24.677083333332746 ] ] } },
{ "type": "Feature", "properties": { "ARCID": 747897, "UP_CELLS": 181332, "buffer_m": 250 }, "geometry": { "type": "LineString", "coordinates": [ [ 91.631249999999454, 24.660416666666084 ], [ 91.627083333332791, 24.664583333332743 ], [ 91.622916666666129, 24.664583333332743 ], [ 91.618749999999437, 24.668749999999413 ], [ 91.618749999999437, 24.672916666666087 ], [ 91.614583333332774, 24.677083333332746 ], [ 91.606249999999449, 24.67708333333275 ], [ 91.602083333332786, 24.672916666666083 ], [ 91.589583333332769, 24.672916666666083 ], [ 91.585416666666106, 24.677083333332746 ], [ 91.572916666666117, 24.677083333332746 ], [ 91.568749999999454, 24.681249999999416 ], [ 91.577083333332794, 24.689583333332749 ] ] } },
{ "type": "Feature", "properties": { "ARCID": 748030, "UP_CELLS": 6289, "buffer_m": 150 }, "geometry": { "type": "LineString", "coordinates": [ [ 92.06874999999944, 24.652083333332758 ], [ 92.06874999999944, 24.656249999999417 ], [ 92.064583333332763, 24.660416666666087 ], [ 92.064583333332763, 24.668749999999417 ], [ 92.06874999999944, 24.672916666666087 ], [ 92.06874999999944, 24.677083333332753 ], [ 92.072916666666103, 24.681249999999412 ], [ 92.072916666666103, 24.689583333332742 ] ] } },
{ "type": "Feature", "properties": { "ARCID": 748105, "UP_CELLS": 156429, "buffer_m": 250 }, "geometry": { "type": "LineString", "coordinates": [ [ 91.897916666666106, 24.647916666666084 ], [ 91.893749999999443, 24.647916666666081 ], [ 91.88958333333278, 24.652083333332751 ], [ 91.88958333333278, 24.65624999999941 ], [ 91.885416666666117, 24.660416666666087 ], [ 91.88124999999944, 24.660416666666087 ], [ 91.877083333332777, 24.656249999999421 ], [ 91.8729166666661, 24.656249999999414 ], [ 91.868749999999451, 24.660416666666087 ], [ 91.856249999999449, 24.647916666666081 ] ] } },
{ "type": "Feature", "properties": { "ARCID": 748106, "UP_CELLS": 156150, "buffer_m": 250 }, "geometry": { "type": "LineString", "coordinates": [ [ 91.910416666666109, 24.672916666666087 ], [ 91.906249999999432, 24.668749999999413 ], [ 91.906249999999432, 24.656249999999414 ], [ 91.897916666666106, 24.647916666666084 ] ] } },
{ "type": "Feature", "properties": { "ARCID": 748107, "UP_CELLS": 797, "buffer_m": 80 }, "geometry": { "type": "LineString", "coordinates": [ [ 92.456249999999429, 24.647916666666081 ], [ 92.447916666666103, 24.656249999999414 ], [ 92.447916666666103, 24.660416666666087 ], [ 92.439583333332763, 24.668749999999413 ], [ 92.439583333332763, 24.697916666666082 ], [ 92.4354166666661, 24.702083333332752 ] ] } },
{ "type": "Feature", "properties": { "ARCID": 748233, "UP_CELLS": 156892, "buffer_m": 250 }, "geometry": { "type": "LineString", "coordinates": [ [ 91.856249999999449, 24.647916666666081 ], [ 91.847916666666109, 24.647916666666084 ], [ 91.843749999999432, 24.652083333332754 ], [ 91.822916666666117, 24.652083333332751 ], [ 91.814583333332777, 24.643749999999415 ], [ 91.8104166666661, 24.643749999999411 ], [ 91.806249999999437, 24.639583333332748 ], [ 91.797916666666111, 24.639583333332748 ], [ 91.793749999999449, 24.643749999999418 ] ] } },
{ "type": "Feature", "properties": { "ARCID": 748234, "UP_CELLS": 1893, "buffer_m": 80 }, "geometry": { "type": "LineString", "coordinates": [ [ 92.060416666666114, 24.639583333332748 ], [ 92.060416666666114, 24.643749999999415 ], [ 92.06874999999944, 24.652083333332758 ] ] } },
{ "type": "Feature", "properties": { "ARCID": 748235, "UP_CELLS": 5407, "buffer_m": 150 }, "geometry": { "type": "LineString", "coordinates": [ [ 92.306249999999437, 24.639583333332748 ], [ 92.297916666666097, 24.647916666666077 ], [ 92.297916666666097, 24.65624999999941 ], [ 92.302083333332774, 24.660416666666087 ], [ 92.314583333332763, 24.66041666666608 ], [ 92.322916666666103, 24.668749999999417 ], [ 92.322916666666103, 24.672916666666087 ], [ 92.327083333332766, 24.677083333332753 ], [ 92.327083333332766, 24.689583333332749 ], [ 92.331249999999443, 24.693749999999412 ], [ 92.331249999999443, 24.697916666666085 ] ] } },
{ "type": "Feature", "properties": { "ARCID": 748297, "UP_CELLS": 180906, "buffer_m": 250 }, "geometry": { "type": "LineString", "coordinates": [ [ 91.677083333332774, 24.635416666666078 ], [ 91.672916666666126, 24.639583333332748 ], [ 91.652083333332769, 24.639583333332748 ], [ 91.631249999999454, 24.660416666666084 ] ] } },
{ "type": "Feature", "properties": { "ARCID": 748375, "UP_CELLS": 4247, "buffer_m": 80 }, "geometry": { "type": "LineString", "coordinates": [ [ 92.085416666666106, 24.631249999999422 ], [ 92.085416666666106, 24.635416666666078 ], [ 92.06874999999944, 24.652083333332758 ] ] } },
{ "type": "Feature", "properties": { "ARCID": 748497, "UP_CELLS": 4921, "buffer_m": 80 }, "geometry": { "type": "LineString", "coordinates": [ [ 92.3104166666661, 24.622916666666089 ], [ 92.3104166666661, 24.635416666666078 ], [ 92.306249999999437, 24.639583333332748 ] ] } },
{ "type": "Feature", "properties": { "ARCID": 748632, "UP_CELLS": 157421, "buffer_m": 250 }, "geometry": { "type": "LineString", "coordinates": [ [ 91.793749999999449, 24.643749999999418 ], [ 91.785416666666109, 24.643749999999411 ], [ 91.781249999999432, 24.639583333332748 ], [ 91.781249999999432, 24.631249999999422 ], [ 91.76458333333278, 24.614583333332753 ] ] } },
{ "type": "Feature", "properties": { "ARCID": 748781, "UP_CELLS": 1480, "buffer_m": 80 }, "geometry": { "type": "LineString", "coordinates": [ [ 92.010416666666117, 24.60624999999942 ], [ 92.022916666666106, 24.618749999999416 ], [ 92.022916666666106, 24.622916666666089 ], [ 92.031249999999432, 24.622916666666086 ], [ 92.035416666666094, 24.627083333332752 ], [ 92.047916666666111, 24.627083333332749 ], [ 92.060416666666114, 24.639583333332748 ] ] } },
{ "type": "Feature", "properties": { "ARCID": 748782, "UP_CELLS": 2545, "buffer_m": 80 }, "geometry": { "type": "LineString", "coordinates": [ [ 92.418749999999434, 24.60624999999942 ], [ 92.418749999999434, 24.618749999999412 ], [ 92.431249999999437, 24.631249999999419 ], [ 92.427083333332774, 24.635416666666078 ], [ 92.427083333332774, 24.639583333332748 ], [ 92.431249999999437, 24.643749999999418 ], [ 92.427083333332774, 24.647916666666084 ], [ 92.431249999999437, 24.652083333332751 ], [ 92.431249999999437, 24.697916666666085 ], [ 92.4354166666661, 24.702083333332752 ] ] } },
{ "type": "Feature", "properties": { "ARCID": 748854, "UP_CELLS": 180637, "buffer_m": 250 }, "geometry": { "type": "LineString", "coordinates": [ [ 91.70208333333278, 24.602083333332754 ], [ 91.6854166666661, 24.618749999999416 ], [ 91.6854166666661, 24.622916666666089 ], [ 91.681249999999437, 24.627083333332749 ], [ 91.681249999999437, 24.631249999999419 ], [ 91.677083333332774, 24.635416666666078 ] ] } },
{ "type": "Feature", "properties": { "ARCID": 748856, "UP_CELLS": 727, "buffer_m": 80 }, "geometry": { "type": "LineString", "coordinates": [ [ 91.772916666666106, 24.60208333333275 ], [ 91.76458333333278, 24.61041666666608 ], [ 91.76458333333278, 24.614583333332753 ] ] } },
{ "type": "Feature", "properties": { "ARCID": 748921, "UP_CELLS": 176608, "buffer_m": 250 }, "geometry": { "type": "LineString", "coordinates": [ [ 91.731249999999449, 24.597916666666087 ], [ 91.706249999999443, 24.597916666666084 ], [ 91.70208333333278, 24.602083333332754 ] ] } },
{ "type": "Feature", "properties": { "ARCID": 748922, "UP_CELLS": 158442, "buffer_m": 250 }, "geometry": { "type": "LineString", "coordinates": [ [ 91.739583333332774, 24.602083333332743 ], [ 91.735416666666111, 24.60208333333275 ], [ 91.731249999999449, 24.597916666666087 ] ] } },
{ "type": "Feature", "properties": { "ARCID": 748923, "UP_CELLS": 158201, "buffer_m": 250 }, "geometry": { "type": "LineString", "coordinates": [ [ 91.76458333333278, 24.614583333332753 ], [ 91.760416666666117, 24.61458333333275 ], [ 91.752083333332777, 24.606249999999417 ], [ 91.752083333332777, 24.602083333332754 ], [ 91.7479166666661, 24.597916666666087 ], [ 91.743749999999437, 24.597916666666091 ], [ 91.739583333332774, 24.602083333332743 ] ] } },
{ "type": "Feature", "properties": { "ARCID": 749051, "UP_CELLS": 1097, "buffer_m": 80 }, "geometry": { "type": "LineString", "coordinates": [ [ 92.00624999999944, 24.589583333332751 ], [ 92.00624999999944, 24.602083333332754 ], [ 92.010416666666117, 24.60624999999942 ] ] } },
{ "type": "Feature", "properties": { "ARCID": 749052, "UP_CELLS": 597, "buffer_m": 80 }, "geometry": { "type": "LineString", "coordinates": [ [ 92.456249999999429, 24.589583333332751 ], [ 92.452083333332766, 24.593749999999417 ], [ 92.452083333332766, 24.602083333332754 ], [ 92.456249999999429, 24.60624999999942 ], [ 92.456249999999429, 24.614583333332757 ], [ 92.452083333332766, 24.618749999999412 ], [ 92.452083333332766, 24.643749999999411 ], [ 92.456249999999429, 24.647916666666081 ] ] } },
{ "type": "Feature", "properties": { "ARCID": 749559, "UP_CELLS": 3925, "buffer_m": 80 }, "geometry": { "type": "LineString", "coordinates": [ [ 91.668749999999449, 24.552083333332753 ], [ 91.689583333332777, 24.572916666666082 ], [ 91.6854166666661, 24.577083333332752 ], [ 91.6854166666661, 24.581249999999422 ], [ 91.70208333333278, 24.597916666666084 ], [ 91.70208333333278, 24.602083333332754 ] ] } },
{ "type": "Feature", "properties": { "ARCID": 749562, "UP_CELLS": 4042, "buffer_m": 80 }, "geometry": { "type": "LineString", "coordinates": [ [ 92.13958333333278, 24.55208333333275 ], [ 92.13958333333278, 24.556249999999412 ], [ 92.131249999999426, 24.564583333332756 ], [ 92.131249999999426, 24.572916666666085 ], [ 92.118749999999437, 24.585416666666084 ], [ 92.110416666666111, 24.585416666666081 ], [ 92.102083333332772, 24.593749999999414 ], [ 92.089583333332769, 24.593749999999417 ], [ 92.085416666666106, 24.597916666666084 ], [ 92.085416666666106, 24.60208333333275 ], [ 92.089583333332769, 24.60624999999942 ], [ 92.089583333332769, 24.610416666666083 ], [ 92.085416666666106, 24.61458333333275 ], [ 92.085416666666106, 24.631249999999422 ] ] } },
{ "type": "Feature", "properties": { "ARCID": 749782, "UP_CELLS": 2150, "buffer_m": 80 }, "geometry": { "type": "LineString", "coordinates": [ [ 92.414583333332757, 24.53958333333275 ], [ 92.414583333332757, 24.543749999999417 ], [ 92.418749999999434, 24.54791666666608 ], [ 92.418749999999434, 24.552083333332757 ], [ 92.422916666666097, 24.556249999999419 ], [ 92.422916666666097, 24.568749999999415 ], [ 92.431249999999437, 24.577083333332752 ], [ 92.431249999999437, 24.581249999999422 ], [ 92.427083333332774, 24.585416666666081 ], [ 92.427083333332774, 24.602083333332747 ], [ 92.422916666666097, 24.606249999999417 ], [ 92.418749999999434, 24.60624999999942 ] ] } },
{ "type": "Feature", "properties": { "ARCID": 749849, "UP_CELLS": 3649, "buffer_m": 80 }, "geometry": { "type": "LineString", "coordinates": [ [ 92.152083333332769, 24.535416666666087 ], [ 92.152083333332769, 24.54374999999942 ], [ 92.147916666666106, 24.547916666666083 ], [ 92.143749999999443, 24.54791666666608 ], [ 92.13958333333278, 24.55208333333275 ] ] } },
{ "type": "Feature", "properties": { "ARCID": 750006, "UP_CELLS": 937, "buffer_m": 80 }, "geometry": { "type": "LineString", "coordinates": [ [ 92.1854166666661, 24.522916666666081 ], [ 92.181249999999437, 24.522916666666084 ], [ 92.172916666666111, 24.531249999999414 ], [ 92.168749999999434, 24.531249999999417 ], [ 92.164583333332772, 24.527083333332751 ], [ 92.156249999999446, 24.535416666666087 ], [ 92.152083333332769, 24.535416666666087 ] ] } },
{ "type": "Feature", "properties": { "ARCID": 750364, "UP_CELLS": 855, "buffer_m": 80 }, "geometry": { "type": "LineString", "coordinates": [ [ 91.993749999999437, 24.502083333332756 ], [ 91.989583333332774, 24.506249999999415 ], [ 91.985416666666111, 24.506249999999419 ], [ 91.981249999999449, 24.510416666666082 ], [ 91.981249999999449, 24.531249999999414 ], [ 91.989583333332774, 24.539583333332743 ], [ 91.993749999999437, 24.53958333333275 ], [ 91.9979166666661, 24.543749999999417 ], [ 91.9979166666661, 24.552083333332753 ], [ 92.002083333332763, 24.556249999999416 ], [ 92.002083333332763, 24.585416666666084 ], [ 92.00624999999944, 24.589583333332751 ] ] } },
{ "type": "Feature", "properties": { "ARCID": 750365, "UP_CELLS": 704, "buffer_m": 80 }, "geometry": { "type": "LineString", "coordinates": [ [ 92.218749999999432, 24.502083333332756 ], [ 92.214583333332769, 24.502083333332756 ], [ 92.210416666666106, 24.506249999999419 ], [ 92.202083333332766, 24.506249999999419 ], [ 92.1854166666661, 24.522916666666081 ] ] } },
{ "type": "Feature", "properties": { "ARCID": 750633, "UP_CELLS": 18102, "buffer_m": 150 }, "geometry": { "type": "LineString", "coordinates": [ [ 91.847916666666109, 24.485416666666087 ], [ 91.843749999999432, 24.485416666666087 ], [ 91.839583333332769, 24.489583333332746 ], [ 91.831249999999443, 24.489583333332753 ], [ 91.82708333333278, 24.493749999999419 ], [ 91.8104166666661, 24.493749999999423 ], [ 91.806249999999437, 24.497916666666082 ], [ 91.797916666666111, 24.497916666666086 ], [ 91.793749999999449, 24.493749999999423 ], [ 91.785416666666109, 24.493749999999419 ], [ 91.781249999999432, 24.497916666666079 ], [ 91.76458333333278, 24.497916666666079 ], [ 91.760416666666117, 24.493749999999416 ], [ 91.7479166666661, 24.493749999999419 ], [ 91.731249999999449, 24.510416666666085 ], [ 91.731249999999449, 24.518749999999415 ], [ 91.735416666666111, 24.522916666666081 ], [ 91.735416666666111, 24.535416666666091 ], [ 91.739583333332774, 24.53958333333275 ], [ 91.739583333332774, 24.543749999999417 ], [ 91.731249999999449, 24.552083333332757 ], [ 91.731249999999449, 24.556249999999416 ], [ 91.735416666666111, 24.560416666666086 ], [ 91.722916666666123, 24.572916666666085 ], [ 91.727083333332786, 24.577083333332752 ], [ 91.727083333332786, 24.581249999999422 ], [ 91.735416666666111, 24.589583333332751 ], [ 91.735416666666111, 24.597916666666087 ], [ 91.731249999999449, 24.597916666666087 ] ] } },
{ "type": "Feature", "properties": { "ARCID": 750634, "UP_CELLS": 2658, "buffer_m": 80 }, "geometry": { "type": "LineString", "coordinates": [ [ 92.147916666666106, 24.48541666666609 ], [ 92.147916666666106, 24.48958333333275 ], [ 92.143749999999443, 24.493749999999419 ], [ 92.143749999999443, 24.522916666666081 ], [ 92.152083333332769, 24.531249999999414 ], [ 92.152083333332769, 24.535416666666087 ] ] } },
{ "type": "Feature", "properties": { "ARCID": 750697, "UP_CELLS": 3656, "buffer_m": 80 }, "geometry": { "type": "LineString", "coordinates": [ [ 91.647916666666106, 24.481249999999424 ], [ 91.652083333332769, 24.48541666666609 ], [ 91.652083333332769, 24.502083333332752 ], [ 91.647916666666106, 24.506249999999419 ], [ 91.647916666666106, 24.514583333332752 ], [ 91.652083333332769, 24.518749999999418 ], [ 91.652083333332769, 24.527083333332754 ], [ 91.668749999999449, 24.543749999999424 ], [ 91.668749999999449, 24.552083333332753 ] ] } },
{ "type": "Feature", "properties": { "ARCID": 751012, "UP_CELLS": 1869, "buffer_m": 80 }, "geometry": { "type": "LineString", "coordinates": [ [ 92.439583333332763, 24.460416666666084 ], [ 92.439583333332763, 24.48958333333275 ], [ 92.4354166666661, 24.493749999999423 ], [ 92.4354166666661, 24.506249999999419 ], [ 92.427083333332774, 24.514583333332748 ], [ 92.422916666666097, 24.514583333332752 ], [ 92.418749999999434, 24.518749999999418 ], [ 92.418749999999434, 24.535416666666091 ], [ 92.414583333332757, 24.53958333333275 ] ] } },
{ "type": "Feature", "properties": { "ARCID": 751567, "UP_CELLS": 4756, "buffer_m": 80 }, "geometry": { "type": "LineString", "coordinates": [ [ 92.314583333332763, 24.427083333332753 ], [ 92.3104166666661, 24.431249999999423 ], [ 92.3104166666661, 24.435416666666082 ], [ 92.314583333332763, 24.439583333332749 ], [ 92.314583333332763, 24.443749999999415 ], [ 92.318749999999426, 24.447916666666089 ], [ 92.318749999999426, 24.456249999999422 ], [ 92.322916666666103, 24.460416666666081 ], [ 92.322916666666103, 24.464583333332747 ], [ 92.3104166666661, 24.477083333332757 ], [ 92.314583333332763, 24.48124999999942 ], [ 92.318749999999426, 24.48124999999942 ], [ 92.322916666666103, 24.485416666666083 ], [ 92.322916666666103, 24.497916666666086 ], [ 92.331249999999443, 24.506249999999415 ], [ 92.331249999999443, 24.535416666666087 ], [ 92.327083333332766, 24.53958333333275 ], [ 92.327083333332766, 24.560416666666086 ], [ 92.314583333332763, 24.572916666666085 ], [ 92.3104166666661, 24.572916666666082 ], [ 92.302083333332774, 24.581249999999422 ], [ 92.302083333332774, 24.585416666666084 ], [ 92.306249999999437, 24.589583333332751 ], [ 92.306249999999437, 24.59374999999941 ], [ 92.3104166666661, 24.597916666666084 ], [ 92.3104166666661, 24.622916666666089 ] ] } }
]
}
