{
"type": "FeatureCollection",
"name": "global_landslide_catalog_bangladesh",
"crs": { "type": "name", "properties": { "name": "urn:ogc:def:crs:OGC:1.3:CRS84" } },
"features": [
{ "type": "Feature", "properties": { "source_name": "Press TV", "source_link": "http://www.presstv.ir/detail.aspx?id=27311&sectionid=351020406", "event_id": 311, "event_date": "2007-10-15T00:00:00", "event_time": null, "event_title": "Betbunia", "event_description": "women and 2 children killed in mudslide, powerful rainstorm affected southeast Bangladesh", "location_description": "Betbunia", "location_accuracy": "5km", "landslide_category": "mudslide", "landslide_trigger": "rain", "landslide_size": "medium", "landslide_setting": "unknown", "fatality_count": 3.0, "injury_count": null, "storm_name": null, "photo_link": null, "notes": null, "event_import_source": "glc", "event_import_id": 311.0, "country_name": "Bangladesh", "country_code": "BD", "admin_division_name": "Khulna", "admin_division_population": 37985.0, "gazeteer_closest_point": "Phultala", "gazeteer_distance": 23.346, "submitted_date": "04/01/2014 12:00:00 AM", "created_date": "11/20/2017 03:17:00 PM", "last_edited_date": "02/15/2018 03:51:00 PM", "longitude": 89.4, "latitude": 22.5333, "district_hint": "Khulna" }, "geometry": { "type": "Point", "coordinates": [ 89.4, 22.5333 ] } },
{ "type": "Feature", "properties": { "source_name": "The Daily Star", "source_link": "http://www.thedailystar.net/backpage/landslide-kills-3-of-a-family-23595", "event_id": 6020, "event_date": "2014-05-10T09:00:00", "event_time": null, "event_title": " Purba Satchhari village in Sadar upazila", "event_description": "Meanwhile, at least 24 houses of Purba Satchhari village in Sadar upazila went into the Manu river during the heavy rains. Some electric poles were also damaged, disrupting electricity in some parts of the district.", "location_description": " Purba Satchhari village in Sadar upazila", "location_accuracy": "10km", "landslide_category": "landslide", "landslide_trigger": "rain", "landslide_size": "medium", "landslide_setting": "unknown", "fatality_count": 0.0, "injury_count": 0.0, "storm_name": null, "photo_link": null, "notes": null, "event_import_source": "glc", "event_import_id": 6020.0, "country_name": "Bangladesh", "country_code": "BD", "admin_division_name": "Sylhet", "admin_division_population": 57441.0, "gazeteer_closest_point": "Maulavi Bāzār", "gazeteer_distance": 11.04683, "submitted_date": "08/24/2014 12:00:00 AM", "created_date": "11/20/2017 03:17:00 PM", "last_edited_date": "02/15/2018 03:51:00 PM", "longitude": 91.7227, "latitude": 24.5784, "district_hint": "Sylhet" }, "geometry": { "type": "Point", "coordinates": [ 91.7227, 24.5784 ] } },
{ "type": "Feature", "properties": { "source_name": "The Daily Star", "source_link": "http://www.thedailystar.net/city/woman-killed-in-ctg-landslide-9838#http://www.thedailystar.net/city/woman-killed-in-ctg-landslide-9838", "event_id": 5834, "event_date": "2014-02-03T00:00:00", "event_time": null, "event_title": " Chittagong", "event_description": "A woman was killed and her father-in-law was injured when a large chunk of earth fell on them while they were cutting hills in Paschim Shanti Nagor area of Chittagong city yesterday.", "location_description": " Chittagong", "location_accuracy": "5km", "landslide_category": "landslide", "landslide_trigger": "unknown", "landslide_size": "medium", "landslide_setting": "unknown", "fatality_count": 1.0, "injury_count": 1.0, "storm_name": null, "photo_link": null, "notes": null, "event_import_source": "glc", "event_import_id": 5834.0, "country_name": "Bangladesh", "country_code": "BD", "admin_division_name": "Chittagong", "admin_division_population": 3920222.0, "gazeteer_closest_point": "Chittagong", "gazeteer_distance": 2.2358, "submitted_date": "08/24/2014 12:00:00 AM", "created_date": "11/20/2017 03:17:00 PM", "last_edited_date": "02/15/2018 03:51:00 PM", "longitude": 91.8123, "latitude": 22.3475, "district_hint": "Chittagong" }, "geometry": { "type": "Point", "coordinates": [ 91.8123, 22.3475 ] } },
{ "type": "Feature", "properties": { "source_name": "The Daily Star", "source_link": "http://www.thedailystar.net/backpage/landslide-kills-3-of-a-family-23595", "event_id": 6019, "event_date": "2014-05-10T09:00:00", "event_time": null, "event_title": "Borolekha upazila of Moulvibazar", "event_description": "Three members of a family were killed as a large chunk of earth from a rain-soaked hill fell on a house in Borolekha upazila of Moulvibazar early yesterday. Tofail Ahmed, superintendent of police in Moulvibazar, said the landslide happened anytime after the torrential rain began in the district around 8:00pm on Friday.", "location_description": "Borolekha upazila of Moulvibazar", "location_accuracy": "25km", "landslide_category": "landslide", "landslide_trigger": "rain", "landslide_size": "small", "landslide_setting": "unknown", "fatality_count": 3.0, "injury_count": 0.0, "storm_name": null, "photo_link": null, "notes": null, "event_import_source": "glc", "event_import_id": 6019.0, "country_name": "Bangladesh", "country_code": "BD", "admin_division_name": "Sylhet", "admin_division_population": 57441.0, "gazeteer_closest_point": "Maulavi Bāzār", "gazeteer_distance": 8.46607, "submitted_date": "08/24/2014 12:00:00 AM", "created_date": "11/20/2017 03:17:00 PM", "last_edited_date": "02/15/2018 03:51:00 PM", "longitude": 91.7561, "latitude": 24.4136, "district_hint": "Sylhet" }, "geometry": { "type": "Point", "coordinates": [ 91.7561, 24.4136 ] } },
{ "type": "Feature", "properties": { "source_name": "google", "source_link": "http://www.google.com/hostednews/afp/article/ALeqM5i3_WUJVJikNHFLjBu4U01jZan7zA?docId=CNG.987be94c4c3ccdfdf0d86cb5108c3d3b.3e1", "event_id": 3804, "event_date": "2011-07-19T00:00:00", "event_time": null, "event_title": "southeastern, DHAKA, Bangladesh", "event_description": "Four killed, 200,000 stranded in Bangladesh floods  (AFP) – Jul 22, 2011   DHAKA — At least four people were killed and more than 200,000 stranded after three days of heavy rains triggered flash floods and landslides in southeastern Bangladesh, officials said Friday.  The government's flood forecasting and warning centre said more than 49 centimetres (19 inches) of rain had pounded the worst-hit Cox's Bazaar district since Wednesday, flooding at least 200 villages in the hilly region.  \"One child was buried under mud due to landslide and three more people were washed away in the huge torrents of water,\" Cox's Bazaar chief district administrator Zainul Bari told AFP.  He said two more people were missing and more than 200,000 had been marooned by the floods, forcing 3,200 families to take shelter in schools, cyclone shelters and on high ground.  Local authorities have distributed emergency relief to those most in need.  Southeastern Bangladesh is prone to deadly flash floods as tens o", "location_description": "southeastern, DHAKA, Bangladesh", "location_accuracy": "50km", "landslide_category": "landslide", "landslide_trigger": "downpour", "landslide_size": "large", "landslide_setting": "unknown", "fatality_count": 4.0, "injury_count": null, "storm_name": null, "photo_link": null, "notes": null, "event_import_source": "glc", "event_import_id": 3804.0, "country_name": "Bangladesh", "country_code": "BD", "admin_division_name": "Dhaka", "admin_division_population": 10356500.0, "gazeteer_closest_point": "Dhaka", "gazeteer_distance": 0.15781, "submitted_date": "04/01/2014 12:00:00 AM", "created_date": "11/20/2017 03:17:00 PM", "last_edited_date": "02/15/2018 03:51:00 PM", "longitude": 90.4077, "latitude": 23.7118, "district_hint": "Dhaka" }, "geometry": { "type": "Point", "coordinates": [ 90.4077, 23.7118 ] } },
{ "type": "Feature", "properties": { "source_name": "Headlines India", "source_link": "http://www.headlinesindia.com/natural-disasters/flood/darjeeling-landslide-toll-reaches-27-12747.html", "event_id": 1027, "event_date": "2009-05-18T08:00:00", "event_time": null, "event_title": "Sreemangal upazila, Moulvibazer.", "event_description": "Six people, five of them of a family, were killed in landslide triggered by heavy rain in the country's northeastern Moulvibazer district on Monday, police said.  Five of a family died as a chunk of earth from the nearby hill collapsed in a heap on their shanty in the Lakhai tea garden slum located in Sreemangal sub-district, officially known as upazila.  The other died instantly in a landslide in the other tea garden during heavy shower.  Heavy rain in the area on early Monday caused the mudslide that also collapsed many houses rendering a number of people homeless in the remote area, police confirmed.", "location_description": "Sreemangal upazila, Moulvibazer.", "location_accuracy": "10km", "landslide_category": "mudslide", "landslide_trigger": "downpour", "landslide_size": "medium", "landslide_setting": "unknown", "fatality_count": 6.0, "injury_count": null, "storm_name": null, "photo_link": null, "notes": null, "event_import_source": "test", "event_import_id": 1027.0, "country_name": "Bangladesh", "country_code": "BD", "admin_division_name": null, "admin_division_population": 5508.0, "gazeteer_closest_point": "Kamalpur", "gazeteer_distance": 16.13337, "submitted_date": "09/16/2014 05:04:00 PM", "created_date": "11/20/2017 03:17:00 PM", "last_edited_date": "02/15/2018 03:51:00 PM", "longitude": 91.7333, "latitude": 24.3083, "district_hint": "" }, "geometry": { "type": "Point", "coordinates": [ 91.7333, 24.3083 ] } },
{ "type": "Feature", "properties": { "source_name": "blog.taragana", "source_link": "http://blog.taragana.com/n/report-landslides-kill-10-people-in-bangladeshs-southeast-126402/", "event_id": 1064, "event_date": "2009-07-31T00:00:00", "event_time": null, "event_title": "Lama village, Bandarban district 155 miles (248 kilometers) southeast of the capital Dhaka", "event_description": "The report says huge chunks of earth buried a hillside hut killing five people from the same family in Lama village. Another five people from two families died in a landslide nearby. The landslides caused by heavy rains have killed 10 people in southeastern Bangladesh.", "location_description": "Lama village, Bandarban district 155 miles (248 kilometers) southeast of the capital Dhaka", "location_accuracy": "5km", "landslide_category": "landslide", "landslide_trigger": "downpour", "landslide_size": "medium", "landslide_setting": "unknown", "fatality_count": 10.0, "injury_count": null, "storm_name": null, "photo_link": null, "notes": null, "event_import_source": "glc", "event_import_id": 1064.0, "country_name": "Bangladesh", "country_code": "BD", "admin_division_name": "Chittagong", "admin_division_population": 32523.0, "gazeteer_closest_point": "Bāndarban", "gazeteer_distance": 4.48178, "submitted_date": "04/01/2014 12:00:00 AM", "created_date": "11/20/2017 03:17:00 PM", "last_edited_date": "02/15/2018 03:51:00 PM", "longitude": 92.19, "latitude": 22.2251, "district_hint": "Chittagong" }, "geometry": { "type": "Point", "coordinates": [ 92.19, 22.2251 ] } },
{ "type": "Feature", "properties": { "source_name": "The Daily Star", "source_link": "http://www.thedailystar.net/newDesign/latest_news.php?nid=24242", "event_id": 1979, "event_date": "2010-06-15T00:00:00", "event_time": null, "event_title": "Cox’s Bāzār : Four members of a family were killed in Uluchamari Hill landslides in Nila Union.", "event_description": "Four members of a family were killed in Uluchamari Hill landslides in Nila Union.", "location_description": null, "location_accuracy": "50km", "landslide_category": "landslide", "landslide_trigger": "downpour", "landslide_size": "medium", "landslide_setting": "unknown", "fatality_count": 4.0, "injury_count": null, "storm_name": null, "photo_link": null, "notes": null, "event_import_source": "glc", "event_import_id": 1979.0, "country_name": "Bangladesh", "country_code": "BD", "admin_division_name": "Chittagong", "admin_division_population": 253788.0, "gazeteer_closest_point": "Cox’s Bāzār", "gazeteer_distance": 35.22153, "submitted_date": "04/01/2014 12:00:00 AM", "created_date": "11/20/2017 03:17:00 PM", "last_edited_date": "02/15/2018 03:51:00 PM", "longitude": 92.1571, "latitude": 21.1899, "district_hint": "Chittagong" }, "geometry": { "type": "Point", "coordinates": [ 92.1571, 21.1899 ] } },
{ "type": "Feature", "properties": { "source_name": "NTV", "source_link": "http://en.ntvbd.com/bangladesh/17930/Mudslide-at-Sylhet-stone-quarry-kills-worker", "event_id": 9333, "event_date": "2016-02-25T13:00:00", "event_time": null, "event_title": "Jaflong", "event_description": "A worker was killed in a mud collapse at a stone quarry in Jaflong area of Goainghat upazila in Sylhet on Thursday, reports UNB.  Local people said Kamal Mia, aged around 50, resident of Budhigaon village in Goainghat upazila, died on the spot when a chunk of mud collapsed on him while digging out stones at the quarry at about 1:00pm.  Habi Mia alias Chhoto Habi, lease holder of the stone quarry, said they provided Tk50,000 as compensation to the family members of the deceased.  Goainghat police sub-inspector Manjurul said no complaint was lodged yet in connection with the quarry worker’s death.", "location_description": "Jaflong", "location_accuracy": "5km", "landslide_category": "landslide", "landslide_trigger": "mining", "landslide_size": "small", "landslide_setting": "mine", "fatality_count": 1.0, "injury_count": 0.0, "storm_name": null, "photo_link": null, "notes": null, "event_import_source": "glc", "event_import_id": 9333.0, "country_name": "Bangladesh", "country_code": "BD", "admin_division_name": "Sylhet", "admin_division_population": 237000.0, "gazeteer_closest_point": "Sylhet", "gazeteer_distance": 32.32367, "submitted_date": "08/03/2016 01:33:00 PM", "created_date": "11/20/2017 03:17:00 PM", "last_edited_date": "02/15/2018 03:51:00 PM", "longitude": 92.0104, "latitude": 25.1622, "district_hint": "Sylhet" }, "geometry": { "type": "Point", "coordinates": [ 92.0104, 25.1622 ] } },
{ "type": "Feature", "properties": { "source_name": "Red Cross - Field reports", "source_link": "http://en.wikipedia.org/wiki/2007_Chittagong_mudslide", "event_id": 85, "event_date": "2007-06-11T00:00:00", "event_time": null, "event_title": "Rangamati", "event_description": "Kaptai Lake overflowed", "location_description": "Rangamati", "location_accuracy": "10km", "landslide_category": "mudslide", "landslide_trigger": "downpour", "landslide_size": "medium", "landslide_setting": "unknown", "fatality_count": 3.0, "injury_count": null, "storm_name": null, "photo_link": null, "notes": null, "event_import_source": "glc", "event_import_id": 85.0, "country_name": "Bangladesh", "country_code": "BD", "admin_division_name": "Chittagong", "admin_division_population": 25708.0, "gazeteer_closest_point": "Raojān", "gazeteer_distance": 25.83472, "submitted_date": "04/01/2014 12:00:00 AM", "created_date": "11/20/2017 03:17:00 PM", "last_edited_date": "02/15/2018 03:51:00 PM", "longitude": 92.1453, "latitude": 22.6368, "district_hint": "Chittagong" }, "geometry": { "type": "Point", "coordinates": [ 92.1453, 22.6368 ] } },
{ "type": "Feature", "properties": { "source_name": "The Daily Star", "source_link": "http://www.thedailystar.net/country/ctg-landslide-kills-mother-daughter-146551", "event_id": 8280, "event_date": "2015-09-21T07:00:00", "event_time": null, "event_title": "Chittagong, Bangladesh", "event_description": "A woman and her five-year-old daughter were killed in a rain-triggered landslide in Chittagong this morning.  The deceased were identified as Parveen Akthar, 30, and her daughter Urmi Akthar, our Chittagong correspondent reports quoting Manosh Barua, a sub-inspector of Bayejid Police Station.  The landslide took place when a chunk of earth of rain-soaked hill fell on their house in Majhirgona area around 7:00am, the SI said.", "location_description": "Chittagong, Bangladesh", "location_accuracy": "10km", "landslide_category": "landslide", "landslide_trigger": "rain", "landslide_size": "medium", "landslide_setting": "unknown", "fatality_count": 2.0, "injury_count": 0.0, "storm_name": null, "photo_link": null, "notes": null, "event_import_source": "glc", "event_import_id": 8280.0, "country_name": "Bangladesh", "country_code": "BD", "admin_division_name": "Chittagong", "admin_division_population": 3920222.0, "gazeteer_closest_point": "Chittagong", "gazeteer_distance": 2.2269, "submitted_date": "07/05/2016 06:58:00 PM", "created_date": "11/20/2017 03:17:00 PM", "last_edited_date": "02/15/2018 03:51:00 PM", "longitude": 91.8138, "latitude": 22.3496, "district_hint": "Chittagong" }, "geometry": { "type": "Point", "coordinates": [ 91.8138, 22.3496 ] } },
{ "type": "Feature", "properties": { "source_name": "BD News 24", "source_link": "http://bdnews24.com/bangladesh/2015/06/26/child-killed-four-injured-in-coxs-bazar-landslide", "event_id": 7000, "event_date": "2015-06-26T14:00:00", "event_time": null, "event_title": "Konarpara", "event_description": "Fire Service’s Majid said torrential rains over the past several days softened the earth of Ghonar Parha Hill.  A part of the hill subsided on some tin-shed houses next to it. Assistant Meteorologist AKM Nasir said it had been raining in the district since June 23. The Met office recorded 123 millimetres rainfall on Friday until afternoon.;Powerful landslides triggered by heavy rains killed at least 49 people, including six army personnel, on Tuesday in two southeastern districts of Cox’s Bazar and Bandarban.  In Cox’s Bazar, the mudslides occurred at different parts including the district town and Himchhari ECB camp, leaving 45 people dead.  Superintendent of Police Nibash Chandra Majhi said 31 people were killed in Teknaf, six in Ukhia, two in the district headquarters and six in the Himchhari army camp.  Of the army men buried under the mud, three bodies were recovered while search was going on for the rest, reports a correspondent from Cox’s Bazar.  Deputy Commissioner Md Gias Uddi", "location_description": "Konarpara", "location_accuracy": "1km", "landslide_category": "landslide", "landslide_trigger": "monsoon", "landslide_size": "medium", "landslide_setting": "natural_slope", "fatality_count": 1.0, "injury_count": 4.0, "storm_name": null, "photo_link": "http://d30fl32nd2baj9.cloudfront.net/media/2015/06/26/coxs-bazar-pahar.jpg/ALTERNATES/w640/coxs-bazar-pahar.jpg", "notes": null, "event_import_source": "glc", "event_import_id": 7000.0, "country_name": "Bangladesh", "country_code": "BD", "admin_division_name": "Chittagong", "admin_division_population": 253788.0, "gazeteer_closest_point": "Cox’s Bāzār", "gazeteer_distance": 4.53556, "submitted_date": "01/14/2016 07:36:00 PM", "created_date": "11/20/2017 03:17:00 PM", "last_edited_date": "02/15/2018 03:51:00 PM", "longitude": 92.0074, "latitude": 21.4409, "district_hint": "Chittagong" }, "geometry": { "type": "Point", "coordinates": [ 92.0074, 21.4409 ] } },
{ "type": "Feature", "properties": { "source_name": "thefinancialexpress-bd", "source_link": "http://www.thefinancialexpress-bd.com/index.php?ref=MjBfMTBfMzFfMTJfMV85MV8xNDg0MjQ=", "event_id": 4598, "event_date": "2012-10-30T09:00:00", "event_time": null, "event_title": "Cox's Bazar,", "event_description": "A person was killed and nine others, including four members of a family, were injured in a mudslide in Sadar upazila on Tuesday afternoon. The deceased was identified as Amzad, 25, son of Osman Gani of South Jurain in the capital.", "location_description": "Cox's Bazar,", "location_accuracy": "10km", "landslide_category": "landslide", "landslide_trigger": "rain", "landslide_size": "medium", "landslide_setting": "unknown", "fatality_count": 1.0, "injury_count": null, "storm_name": null, "photo_link": null, "notes": null, "event_import_source": "glc", "event_import_id": 4598.0, "country_name": "Bangladesh", "country_code": "BD", "admin_division_name": "Chittagong", "admin_division_population": 253788.0, "gazeteer_closest_point": "Cox’s Bāzār", "gazeteer_distance": 4.31226, "submitted_date": "04/01/2014 12:00:00 AM", "created_date": "11/20/2017 03:17:00 PM", "last_edited_date": "02/15/2018 03:51:00 PM", "longitude": 92.0076, "latitude": 21.443, "district_hint": "Chittagong" }, "geometry": { "type": "Point", "coordinates": [ 92.0076, 21.443 ] } },
{ "type": "Feature", "properties": { "source_name": "The Daily Star", "source_link": "http://www.thedailystar.net/newDesign/latest_news.php?nid=24242", "event_id": 1978, "event_date": "2010-06-15T04:00:00", "event_time": null, "event_title": "Tuinya hilll in Teknaf", "event_description": "Meanwhile, landslides from Tuinya Hill in Teknaf upazila killed seven people and injured four others. ", "location_description": "Tuinya hilll in Teknaf", "location_accuracy": "25km", "landslide_category": "landslide", "landslide_trigger": "downpour", "landslide_size": "medium", "landslide_setting": "unknown", "fatality_count": 7.0, "injury_count": null, "storm_name": null, "photo_link": null, "notes": null, "event_import_source": "glc", "event_import_id": 1978.0, "country_name": "Bangladesh", "country_code": "BD", "admin_division_name": "Chittagong", "admin_division_population": 40557.0, "gazeteer_closest_point": "Teknāf", "gazeteer_distance": 0.29303, "submitted_date": "04/01/2014 12:00:00 AM", "created_date": "11/20/2017 03:17:00 PM", "last_edited_date": "02/15/2018 03:51:00 PM", "longitude": 92.22263842, "latitude": 20.92931962, "district_hint": "Chittagong" }, "geometry": { "type": "Point", "coordinates": [ 92.22263842, 20.92931962 ] } },
{ "type": "Feature", "properties": { "source_name": "The Financial Express", "source_link": "http://print.thefinancialexpress-bd.com/2015/11/17/118258", "event_id": 8955, "event_date": "2015-11-16T00:00:00", "event_time": null, "event_title": "Companiganj upazila of Sylhet district", "event_description": "A labourer was killed in an incident of landslide while doing work of stone lifting in Companiganj upazila of Sylhet district on Monday. The deceased was identified as Anwar, 35. Witnesses said Anwar, along with other labourers, was lifting stone from Shah Arefin Hill at noon. At a stage, a chunk of mud from the hill crashed on Anwar around 12pm, leaving him injured. Later, he was rushed to Companiganj health complex where on-duty doctors declared him dead, according to a news agency.", "location_description": "Companiganj upazila of Sylhet district", "location_accuracy": "1km", "landslide_category": "landslide", "landslide_trigger": "unknown", "landslide_size": "small", "landslide_setting": "mine", "fatality_count": 1.0, "injury_count": 0.0, "storm_name": null, "photo_link": null, "notes": null, "event_import_source": "glc", "event_import_id": 8955.0, "country_name": "Bangladesh", "country_code": "BD", "admin_division_name": "Sylhet", "admin_division_population": 39218.0, "gazeteer_closest_point": "Chhātak", "gazeteer_distance": 10.8974, "submitted_date": "07/14/2016 02:49:00 PM", "created_date": "11/20/2017 03:17:00 PM", "last_edited_date": "02/15/2018 03:51:00 PM", "longitude": 91.7783, "latitude": 25.0821, "district_hint": "Sylhet" }, "geometry": { "type": "Point", "coordinates": [ 91.7783, 25.0821 ] } },
{ "type": "Feature", "properties": { "source_name": "Dhaka Tribune", "source_link": "http://www.dhakatribune.com/bangladesh/2015/feb/23/4-died-sylhet-landslide", "event_id": 6792, "event_date": "2015-02-22T20:30:00", "event_time": null, "event_title": "Bholaganj stone quarry in Companyganj upazila", "event_description": "Witnesses said a chunk of mud collapsed on them around 8:30pm, while the labourers were digging up stones at the quarry, leaving them dead on the spot.", "location_description": "Bholaganj stone quarry in Companyganj upazila", "location_accuracy": "5km", "landslide_category": "mudslide", "landslide_trigger": "mining", "landslide_size": "medium", "landslide_setting": "mine", "fatality_count": 4.0, "injury_count": 0.0, "storm_name": null, "photo_link": null, "notes": null, "event_import_source": "glc", "event_import_id": 6792.0, "country_name": "Bangladesh", "country_code": "BD", "admin_division_name": "Sylhet", "admin_division_population": 39218.0, "gazeteer_closest_point": "Chhātak", "gazeteer_distance": 13.78623, "submitted_date": "02/24/2015 05:25:00 PM", "created_date": "11/20/2017 03:17:00 PM", "last_edited_date": "02/15/2018 03:51:00 PM", "longitude": 91.7483, "latitude": 25.1472, "district_hint": "Sylhet" }, "geometry": { "type": "Point", "coordinates": [ 91.7483, 25.1472 ] } },
{ "type": "Feature", "properties": { "source_name": "foxnews", "source_link": "http://www.foxnews.com/world/2012/06/27/landslides-kill-30-in-southern-bangladesh513572/", "event_id": 4432, "event_date": "2012-06-24T00:00:00", "event_time": null, "event_title": "Chittagong", "event_description": "Landslides and floods caused by heavy monsoon rains killed at least 91 people in southern Bangladesh and many more were missing, the government said Wednesday.  At least 37 died in Cox's Bazar, 33 in neighboring Bandarban and another 21 in Chittagong, mostly in a series of landslides, the Disaster Management Ministry said. It said soldiers were joining the search for the missing. Three days of torrential rain in the region of small hills and forests dislodged huge chunks of earth which buried flimsy huts where families were sleeping late Tuesday and early Wednesday. Many homeless people live at the foot of the hills or close to them despite warnings from authorities.  Read more: http://www.foxnews.com/world/2012/06/27/landslides-kill-30-in-southern-bangladesh513572/#ixzz2HgIbeaxQ  Read more: http://www.foxnews.com/world/2012/06/27/landslides-kill-30-in-southern-bangladesh513572/#ixzz2HgIT0LvN", "location_description": "Chittagong", "location_accuracy": "10km", "landslide_category": "landslide", "landslide_trigger": "downpour", "landslide_size": "large", "landslide_setting": "unknown", "fatality_count": 31.0, "injury_count": null, "storm_name": null, "photo_link": null, "notes": null, "event_import_source": "glc", "event_import_id": 4432.0, "country_name": "Bangladesh", "country_code": "BD", "admin_division_name": "Chittagong", "admin_division_population": 3920222.0, "gazeteer_closest_point": "Chittagong", "gazeteer_distance": 1.03985, "submitted_date": "04/01/2014 12:00:00 AM", "created_date": "11/20/2017 03:17:00 PM", "last_edited_date": "02/15/2018 03:51:00 PM", "longitude": 91.8252, "latitude": 22.3312, "district_hint": "Chittagong" }, "geometry": { "type": "Point", "coordinates": [ 91.8252, 22.3312 ] } },
{ "type": "Feature", "properties": { "source_name": "The Daily Star", "source_link": "http://www.thedailystar.net/city/woman-dies-sylhet-landslide-573988", "event_id": 9308, "event_date": "2016-02-16T23:00:00", "event_time": null, "event_title": "Sylhet", "event_description": "A woman was killed and her husband injured in a landslide at a stone quarry in Balughat area of Sylhet's Gowainghat upazila on Tuesday night.  The victims were Saina Begum, 34, and her husband Kala Miah of the upazila's Shoti village.  Injured Kala Miah was taken to Sylhet Osmani Medical College Hospital.  Md Delowar Hossain, officer-in-charge of Gowainghat police, confirmed the incident to The Daily Star.  The OC said a chunk of the quarry suddenly fell on the duo when they were collecting stones, leaving Sania dead on the spot and her husband injured.", "location_description": "Sylhet", "location_accuracy": "5km", "landslide_category": "rock_fall", "landslide_trigger": "mining", "landslide_size": "small", "landslide_setting": "mine", "fatality_count": 1.0, "injury_count": 1.0, "storm_name": null, "photo_link": null, "notes": null, "event_import_source": "glc", "event_import_id": 9308.0, "country_name": "Bangladesh", "country_code": "BD", "admin_division_name": "Sylhet", "admin_division_population": 237000.0, "gazeteer_closest_point": "Sylhet", "gazeteer_distance": 0.78886, "submitted_date": "08/02/2016 05:30:00 PM", "created_date": "11/20/2017 03:17:00 PM", "last_edited_date": "02/15/2018 03:51:00 PM", "longitude": 91.8644, "latitude": 24.9007, "district_hint": "Sylhet" }, "geometry": { "type": "Point", "coordinates": [ 91.8644, 24.9007 ] } },
{ "type": "Feature", "properties": { "source_name": "Daily Star", "source_link": "http://www.thedailystar.net/newDesign/latest_news.php?nid=24242", "event_id": 1975, "event_date": "2010-06-15T00:00:00", "event_time": null, "event_title": "Ukhia, Cox's Bazar", "event_description": "Powerful landslides triggered by heavy rains killed at least 49 people, including six army personnel, on Tuesday in two southeastern districts of Cox’s Bazar and Bandarban.  In Cox’s Bazar, the mudslides occurred at different parts including the district town and Himchhari ECB camp, leaving 45 people dead.  Superintendent of Police Nibash Chandra Majhi said 31 people were killed in Teknaf, six in Ukhia, two in the district headquarters and six in the Himchhari army camp.  Of the army men buried under the mud, three bodies were recovered while search was going on for the rest, reports a correspondent from Cox’s Bazar.  Deputy Commissioner Md Gias Uddin Ahmed said they were urging people through loudhailers to evacuate the hilly areas. ", "location_description": "Ukhia, Cox's Bazar", "location_accuracy": "5km", "landslide_category": "landslide", "landslide_trigger": "downpour", "landslide_size": "medium", "landslide_setting": "unknown", "fatality_count": 6.0, "injury_count": null, "storm_name": null, "photo_link": null, "notes": null, "event_import_source": "glc", "event_import_id": 1975.0, "country_name": "Bangladesh", "country_code": "BD", "admin_division_name": "Chittagong", "admin_division_population": 253788.0, "gazeteer_closest_point": "Cox’s Bāzār", "gazeteer_distance": 32.54732, "submitted_date": "04/01/2014 12:00:00 AM", "created_date": "11/20/2017 03:17:00 PM", "last_edited_date": "02/15/2018 03:51:00 PM", "longitude": 92.19530189, "latitude": 21.23704301, "district_hint": "Chittagong" }, "geometry": { "type": "Point", "coordinates": [ 92.19530189, 21.23704301 ] } },
{ "type": "Feature", "properties": { "source_name": "Business News 24 BD", "source_link": "http://businessnews24bd.com/landslide-kills-mother-daughter-in-ctg/", "event_id": 9321, "event_date": "2016-05-21T09:00:00", "event_time": null, "event_title": "Jangle Salimpur area, Sitakunda upazila, Chittagong, Balngladesh", "event_description": "A woman and her daughter were killed in a rain-triggered landslide at Sitakunda upazila of Chittagong on Saturday morning. The deceased were identified as–Kajal Begum, 45, and her son Belal Hossain, 10. Mamunur Rashid, an official of Chittagong Fire Service Control Room, said the incident took place at Jangle Salimpur area when a chunk of mud collapsed on their thatched house early today during rainfalls, leaving the duo dead on the spot.", "location_description": "Jangle Salimpur area, Sitakunda upazila, Chittagong, Balngladesh", "location_accuracy": "5km", "landslide_category": "landslide", "landslide_trigger": "tropical_cyclone", "landslide_size": "small", "landslide_setting": "unknown", "fatality_count": 2.0, "injury_count": 0.0, "storm_name": "Roanu", "photo_link": null, "notes": null, "event_import_source": "glc", "event_import_id": 9321.0, "country_name": "Bangladesh", "country_code": "BD", "admin_division_name": "Chittagong", "admin_division_population": 33200.0, "gazeteer_closest_point": "Fatikchari", "gazeteer_distance": 13.06101, "submitted_date": "08/02/2016 07:22:00 PM", "created_date": "11/20/2017 03:17:00 PM", "last_edited_date": "02/15/2018 03:51:00 PM", "longitude": 91.6743, "latitude": 22.6239, "district_hint": "Chittagong" }, "geometry": { "type": "Point", "coordinates": [ 91.6743, 22.6239 ] } },
{ "type": "Feature", "properties": { "source_name": "Allheadlinenews.com", "source_link": "http://www.allheadlinenews.com/articles/7008891877", "event_id": 318, "event_date": "2007-10-19T00:00:00", "event_time": null, "event_title": "Madamdevihat in Chittagong and Dolhajra in Chokoria upazila", "event_description": "occurred at 10:50 pm, severed a fiber optic cable, ", "location_description": "Madamdevihat in Chittagong and Dolhajra in Chokoria upazila", "location_accuracy": "unknown", "landslide_category": "landslide", "landslide_trigger": "unknown", "landslide_size": "medium", "landslide_setting": "unknown", "fatality_count": null, "injury_count": null, "storm_name": null, "photo_link": null, "notes": null, "event_import_source": "glc", "event_import_id": 318.0, "country_name": "Bangladesh", "country_code": "BD", "admin_division_name": "Chittagong", "admin_division_population": 39335.0, "gazeteer_closest_point": "Chhāgalnāiya", "gazeteer_distance": 14.65105, "submitted_date": "04/01/2014 12:00:00 AM", "created_date": "11/20/2017 03:17:00 PM", "last_edited_date": "02/15/2018 03:51:00 PM", "longitude": 91.5327, "latitude": 22.894, "district_hint": "Chittagong" }, "geometry": { "type": "Point", "coordinates": [ 91.5327, 22.894 ] } },
{ "type": "Feature", "properties": { "source_name": "bdnews24", "source_link": "http://www.bdnews24.com/details.php?id=199829&cid=2", "event_id": 3680, "event_date": "2011-07-01T06:00:00", "event_time": null, "event_title": "Batali, Chittagong", "event_description": "Chittagong, July 2 (bdnews24.com)—The government is investigating Friday's hillslide at Batali in the port city that has claimed at least 16 lives as rescue operations ran well past midnight, with the body counts likely to rise.  Twelve people were killed in a landslide in southeastern Bangladesh on Friday, Xinhua reported. The rain-triggered landslide occurred in Chittagong city, about 240 km from Dhaka. \"We have retrieved 12 bodies,\" fire service official Ruhul Amin said. A big chunk of earth. Death toll was revised as 17.  Heavy rains for the past few days caused a huge chunk of earth and a retaining wall to collapse around 6am, burying six hillside shanties and leaving scores of people trapped.   A five-strong probe committee, headed by additional deputy commissioner (general) Ehsan Elahi, has been given five days to submit the report on the landslide in Tigerpass. The investigators have started work.   One member each from the eastern zone of Bangladesh Railway, Chittagong Metro", "location_description": "Batali, Chittagong", "location_accuracy": "10km", "landslide_category": "landslide", "landslide_trigger": "downpour", "landslide_size": "large", "landslide_setting": "unknown", "fatality_count": 17.0, "injury_count": null, "storm_name": null, "photo_link": null, "notes": null, "event_import_source": "glc", "event_import_id": 3680.0, "country_name": "Bangladesh", "country_code": "BD", "admin_division_name": "Chittagong", "admin_division_population": 3920222.0, "gazeteer_closest_point": "Chittagong", "gazeteer_distance": 1.72122, "submitted_date": "04/01/2014 12:00:00 AM", "created_date": "11/20/2017 03:17:00 PM", "last_edited_date": "02/15/2018 03:51:00 PM", "longitude": 91.8161, "latitude": 22.344, "district_hint": "Chittagong" }, "geometry": { "type": "Point", "coordinates": [ 91.8161, 22.344 ] } },
{ "type": "Feature", "properties": { "source_name": "Daily Sun", "source_link": "http://www.daily-sun.com/post/63189/5-killed-2-missing-in-Bandarban-landslide-", "event_id": 7365, "event_date": "2015-08-01T03:00:00", "event_time": null, "event_title": "Hospital Para in Lama upazila", "event_description": "At least seven people, including a children, were killed, two went missing and at least three others injured in a landslide, caused by incessant rainfall for the last nine days at Hospital Para in Lama upazila of Bandarban district on early Saturday.", "location_description": "Hospital Para in Lama upazila", "location_accuracy": "50km", "landslide_category": "mudslide", "landslide_trigger": "continuous_rain", "landslide_size": "small", "landslide_setting": "unknown", "fatality_count": 7.0, "injury_count": 3.0, "storm_name": null, "photo_link": "http://www.thedailystar.net/sites/default/files/styles/big_4/public/feature/images/bandarban-landslide.jpg?itok=ZtfCTgJl", "notes": null, "event_import_source": "glc", "event_import_id": 7365.0, "country_name": "Bangladesh", "country_code": "BD", "admin_division_name": "Chittagong", "admin_division_population": 52005.0, "gazeteer_closest_point": "Sātkania", "gazeteer_distance": 36.54669, "submitted_date": "12/14/2015 10:59:00 PM", "created_date": "11/20/2017 03:17:00 PM", "last_edited_date": "02/15/2018 03:51:00 PM", "longitude": 92.1991, "latitude": 21.7773, "district_hint": "Chittagong" }, "geometry": { "type": "Point", "coordinates": [ 92.1991, 21.7773 ] } },
{ "type": "Feature", "properties": { "source_name": "bdnews24.com", "source_link": "http://bdnews24.com/bangladesh/2013/01/30/landslide-in-sitakunda", "event_id": 4743, "event_date": "2013-01-30T00:00:00", "event_time": null, "event_title": "Sitakunda, Chittagong Division,", "event_description": "At least one worker was injured and some others feared trapped under a landslide during the digging of a hill at Sitakunda upazila of Chittagong on Wednesday.", "location_description": "Sitakunda, Chittagong Division,", "location_accuracy": "5km", "landslide_category": "landslide", "landslide_trigger": "rain", "landslide_size": "large", "landslide_setting": "unknown", "fatality_count": null, "injury_count": null, "storm_name": null, "photo_link": null, "notes": null, "event_import_source": "glc", "event_import_id": 4743.0, "country_name": "Bangladesh", "country_code": "BD", "admin_division_name": "Chittagong", "admin_division_population": 33200.0, "gazeteer_closest_point": "Fatikchari", "gazeteer_distance": 14.59203, "submitted_date": "04/01/2014 12:00:00 AM", "created_date": "11/20/2017 03:17:00 PM", "last_edited_date": "02/15/2018 03:51:00 PM", "longitude": 91.6591, "latitude": 22.6205, "district_hint": "Chittagong" }, "geometry": { "type": "Point", "coordinates": [ 91.6591, 22.6205 ] } },
{ "type": "Feature", "properties": { "source_name": "The Daily Star", "source_link": "http://www.thedailystar.net/city/nasir-hit-landslides-first-day-office-117430", "event_id": 7283, "event_date": "2015-07-26T07:00:00", "event_time": null, "event_title": "Manila Hill, Chittagong District Shilpakala Academy", "event_description": "Around 7:00am yesterday, a chunk of earth from the adjacent Manila Hill collapsed onto Chittagong District Shilpakala Academy.  Breaking the wall and the windows of a classroom of the academy's main building, mud spread in an office and two classrooms, said district cultural officer Moslem Uddin Shikdar.", "location_description": "Manila Hill, Chittagong District Shilpakala Academy", "location_accuracy": "1km", "landslide_category": "landslide", "landslide_trigger": "continuous_rain", "landslide_size": "small", "landslide_setting": "urban", "fatality_count": 0.0, "injury_count": 0.0, "storm_name": null, "photo_link": null, "notes": null, "event_import_source": "glc", "event_import_id": 7283.0, "country_name": "Bangladesh", "country_code": "BD", "admin_division_name": "Chittagong", "admin_division_population": 3920222.0, "gazeteer_closest_point": "Chittagong", "gazeteer_distance": 2.31697, "submitted_date": "07/29/2015 08:42:00 PM", "created_date": "11/20/2017 03:17:00 PM", "last_edited_date": "02/15/2018 03:51:00 PM", "longitude": 91.8022, "latitude": 22.4254, "district_hint": "Chittagong" }, "geometry": { "type": "Point", "coordinates": [ 91.8022, 22.4254 ] } },
{ "type": "Feature", "properties": { "source_name": "The Daily Star", "source_link": "http://www.thedailystar.net/country/2-buried-while-cutting-hill-ctg-90934", "event_id": 7023, "event_date": "2015-06-01T14:00:00", "event_time": null, "event_title": "Dakkhin Para, Banshkhali upazila of Chittagong", "event_description": "Two workers were killed and another injured as a chunk of earth fell on them while they were cutting hill. They were cutting the hill illegally, police said.", "location_description": "Dakkhin Para, Banshkhali upazila of Chittagong", "location_accuracy": "25km", "landslide_category": "landslide", "landslide_trigger": "mining", "landslide_size": "medium", "landslide_setting": "natural_slope", "fatality_count": 2.0, "injury_count": 1.0, "storm_name": null, "photo_link": null, "notes": null, "event_import_source": "glc", "event_import_id": 7023.0, "country_name": "Bangladesh", "country_code": "BD", "admin_division_name": "Chittagong", "admin_division_population": 52005.0, "gazeteer_closest_point": "Sātkania", "gazeteer_distance": 12.29665, "submitted_date": "02/23/2016 09:04:00 PM", "created_date": "11/20/2017 03:17:00 PM", "last_edited_date": "02/15/2018 03:51:00 PM", "longitude": 91.9538, "latitude": 22.0104, "district_hint": "Chittagong" }, "geometry": { "type": "Point", "coordinates": [ 91.9538, 22.0104 ] } },
{ "type": "Feature", "properties": { "source_name": "Fox News", "source_link": "http://www.foxnews.com/world/2012/06/27/landslides-kill-30-in-southern-bangladesh513572/", "event_id": 4430, "event_date": "2012-06-24T00:00:00", "event_time": null, "event_title": "Cox's Bazar", "event_description": "Landslides and floods caused by heavy monsoon rains killed at least 91 people in southern Bangladesh and many more were missing, the government said Wednesday.  At least 37 died in Cox's Bazar, 33 in neighboring Bandarban and another 21 in Chittagong, mostly in a series of landslides, the Disaster Management Ministry said. It said soldiers were joining the search for the missing. Three days of torrential rain in the region of small hills and forests dislodged huge chunks of earth which buried flimsy huts where families were sleeping late Tuesday and early Wednesday. Many homeless people live at the foot of the hills or close to them despite warnings from authorities.  Read more: http://www.foxnews.com/world/2012/06/27/landslides-kill-30-in-southern-bangladesh513572/#ixzz2HgIbeaxQ  Read more: http://www.foxnews.com/world/2012/06/27/landslides-kill-30-in-southern-bangladesh513572/#ixzz2HgIT0LvN", "location_description": "Cox's Bazar", "location_accuracy": "unknown", "landslide_category": "landslide", "landslide_trigger": "downpour", "landslide_size": "large", "landslide_setting": "unknown", "fatality_count": 41.0, "injury_count": null, "storm_name": null, "photo_link": null, "notes": null, "event_import_source": "glc", "event_import_id": 4430.0, "country_name": "Bangladesh", "country_code": "BD", "admin_division_name": "Chittagong", "admin_division_population": 253788.0, "gazeteer_closest_point": "Cox’s Bāzār", "gazeteer_distance": 4.36333, "submitted_date": "04/01/2014 12:00:00 AM", "created_date": "11/20/2017 03:17:00 PM", "last_edited_date": "02/15/2018 03:51:00 PM", "longitude": 92.01072983, "latitude": 21.38070054, "district_hint": "Chittagong" }, "geometry": { "type": "Point", "coordinates": [ 92.01072983, 21.38070054 ] } },
{ "type": "Feature", "properties": { "source_name": "The Daily Star", "source_link": "http://www.thedailystar.net/story.php?nid=51653", "event_id": 741, "event_date": "2008-08-23T16:00:00", "event_time": null, "event_title": "Motijharna of Lalkhan Bazar", "event_description": "Witnesses said a large portion of Batali Hill fell down at around 4:00pm", "location_description": "Motijharna of Lalkhan Bazar", "location_accuracy": "10km", "landslide_category": "landslide", "landslide_trigger": "downpour", "landslide_size": "medium", "landslide_setting": "unknown", "fatality_count": null, "injury_count": null, "storm_name": null, "photo_link": null, "notes": null, "event_import_source": "glc", "event_import_id": 741.0, "country_name": "Bangladesh", "country_code": "BD", "admin_division_name": "Chittagong", "admin_division_population": 3920222.0, "gazeteer_closest_point": "Chittagong", "gazeteer_distance": 1.46523, "submitted_date": "09/15/2014 04:30:00 PM", "created_date": "11/20/2017 03:17:00 PM", "last_edited_date": "02/15/2018 03:51:00 PM", "longitude": 91.8188, "latitude": 22.344, "district_hint": "Chittagong" }, "geometry": { "type": "Point", "coordinates": [ 91.8188, 22.344 ] } },
{ "type": "Feature", "properties": { "source_name": "Dhaka Tribune", "source_link": "http://www.dhakatribune.com/bangladesh/2015/jun/27/11-dead-landslides-flashfloods", "event_id": 7003, "event_date": "2015-06-27T09:00:00", "event_time": null, "event_title": "Ramu upazila", "event_description": "In Cox’s Bazar, two people were killed in separate incidents of landslide at Ramu upazila in the morning.", "location_description": "Ramu upazila", "location_accuracy": "25km", "landslide_category": "landslide", "landslide_trigger": "monsoon", "landslide_size": "small", "landslide_setting": "unknown", "fatality_count": 1.0, "injury_count": 0.0, "storm_name": null, "photo_link": null, "notes": null, "event_import_source": "glc", "event_import_id": 7003.0, "country_name": "Bangladesh", "country_code": "BD", "admin_division_name": "Chittagong", "admin_division_population": 253788.0, "gazeteer_closest_point": "Cox’s Bāzār", "gazeteer_distance": 15.10994, "submitted_date": "06/30/2015 03:29:00 PM", "created_date": "11/20/2017 03:17:00 PM", "last_edited_date": "02/15/2018 03:51:00 PM", "longitude": 92.1117, "latitude": 21.444, "district_hint": "Chittagong" }, "geometry": { "type": "Point", "coordinates": [ 92.1117, 21.444 ] } },
{ "type": "Feature", "properties": { "source_name": "The Daily Star", "source_link": "http://www.thedailystar.net/newDesign/latest_news.php?nid=36323", "event_id": 4248, "event_date": "2012-03-08T08:30:00", "event_time": null, "event_title": "Andarghona village, Moheshkhali upazila, Cox’s Bazar", "event_description": "A man was killed and three were injured in a landslide in Moheshkhali upazila of Cox’s Bazar Thursday morning. On information, police recovered the body of Md Idris, 35, and sent it to Cox’s Bazar Sadar Hospital morgue for autopsy, reports a district correspondent. The three injured persons – Abdus Sabur, 45, Abu Shamad, 45, and Mohammad Ali, 38, –were admitted to the local upazila health complex. Police said a large chunk of earth fell on the workers from at least 10 feet above when they were working at a betel-leaf garden at the bottom of a hillock at Adharghona village around 8:30am.", "location_description": "Andarghona village, Moheshkhali upazila, Cox’s Bazar", "location_accuracy": "5km", "landslide_category": "landslide", "landslide_trigger": "unknown", "landslide_size": "medium", "landslide_setting": "unknown", "fatality_count": 1.0, "injury_count": null, "storm_name": null, "photo_link": null, "notes": null, "event_import_source": "glc", "event_import_id": 4248.0, "country_name": "Bangladesh", "country_code": "BD", "admin_division_name": "Chittagong", "admin_division_population": 253788.0, "gazeteer_closest_point": "Cox’s Bāzār", "gazeteer_distance": 7.34628, "submitted_date": "04/01/2014 12:00:00 AM", "created_date": "11/20/2017 03:17:00 PM", "last_edited_date": "02/15/2018 03:51:00 PM", "longitude": 91.9696, "latitude": 21.5202, "district_hint": "Chittagong" }, "geometry": { "type": "Point", "coordinates": [ 91.9696, 21.5202 ] } },
{ "type": "Feature", "properties": { "source_name": "www.thedailystar.net", "source_link": "http://www.thedailystar.net/beta2/news/child-killed-in-mudslide-in-coxs-bazar/", "event_id": 5001, "event_date": "2013-06-30T06:00:00", "event_time": null, "event_title": "Saikatpara Hill Area, Cox'S Bazar Municipality", "event_description": "A four-year-old child was killed and his mother injured in a landslide resulting from heavy rain at Saikatpara, hill area under CoxÕs Bazar municipality, yesterday. A chunk of earth fell on the Saikatpara house of Rezaul Karim a dawn, leaving his son Sakib and wife Taiyaba Begum seriously injured, police said.", "location_description": "Saikatpara Hill Area, Cox'S Bazar Municipality", "location_accuracy": "1km", "landslide_category": "mudslide", "landslide_trigger": "downpour", "landslide_size": "medium", "landslide_setting": "unknown", "fatality_count": 1.0, "injury_count": 1.0, "storm_name": null, "photo_link": null, "notes": null, "event_import_source": "glc", "event_import_id": 5001.0, "country_name": "Bangladesh", "country_code": "BD", "admin_division_name": "Chittagong", "admin_division_population": 32523.0, "gazeteer_closest_point": "Bāndarban", "gazeteer_distance": 36.36715, "submitted_date": "04/01/2014 12:00:00 AM", "created_date": "11/20/2017 03:17:00 PM", "last_edited_date": "02/15/2018 03:51:00 PM", "longitude": 92.4951, "latitude": 21.9907, "district_hint": "Chittagong" }, "geometry": { "type": "Point", "coordinates": [ 92.4951, 21.9907 ] } },
{ "type": "Feature", "properties": { "source_name": "The Daily Star", "source_link": "http://www.thedailystar.net/newDesign/latest_news.php?nid=24242", "event_id": 1976, "event_date": "2010-06-15T04:00:00", "event_time": null, "event_title": "South Rahmater Bill village ", "event_description": "Four members of a family died around 4:00am at South Rahmater Bill village while at the same time another person, son of Zafar Alam, died at the Dhamankhali village in Ukhia upazila in the landslides.", "location_description": "South Rahmater Bill village ", "location_accuracy": "25km", "landslide_category": "landslide", "landslide_trigger": "downpour", "landslide_size": "medium", "landslide_setting": "unknown", "fatality_count": 4.0, "injury_count": null, "storm_name": null, "photo_link": null, "notes": null, "event_import_source": "glc", "event_import_id": 1976.0, "country_name": "Bangladesh", "country_code": "BD", "admin_division_name": "Chittagong", "admin_division_population": 253788.0, "gazeteer_closest_point": "Cox’s Bāzār", "gazeteer_distance": 34.1929, "submitted_date": "04/01/2014 12:00:00 AM", "created_date": "11/20/2017 03:17:00 PM", "last_edited_date": "02/15/2018 03:51:00 PM", "longitude": 92.19905362, "latitude": 21.23291114, "district_hint": "Chittagong" }, "geometry": { "type": "Point", "coordinates": [ 92.19905362, 21.23291114 ] } },
{ "type": "Feature", "properties": { "source_name": "Dhaka Tribune", "source_link": "http://www.dhakatribune.com/bangladesh/2015/apr/19/mud-slide-kills-2-chapainawabganj", "event_id": 7134, "event_date": "2015-04-19T09:00:00", "event_time": null, "event_title": "Ujirpur barrage 3 under Shibchar upazila in Chapainawabganj", "event_description": "At a stage, the mud from nearby dam slided on them. Later, the locals recovered their bodies from under the mud", "location_description": "Ujirpur barrage 3 under Shibchar upazila in Chapainawabganj", "location_accuracy": "25km", "landslide_category": "mudslide", "landslide_trigger": "dam_embankment_collapse", "landslide_size": "small", "landslide_setting": "above_river", "fatality_count": 2.0, "injury_count": 0.0, "storm_name": null, "photo_link": null, "notes": null, "event_import_source": "glc", "event_import_id": 7134.0, "country_name": "Bangladesh", "country_code": "BD", "admin_division_name": "Rājshāhi", "admin_division_population": 142361.0, "gazeteer_closest_point": "Nawābganj", "gazeteer_distance": 9.97116, "submitted_date": "07/10/2015 03:16:00 PM", "created_date": "11/20/2017 03:17:00 PM", "last_edited_date": "02/15/2018 03:51:00 PM", "longitude": 88.1825, "latitude": 24.5582, "district_hint": "Rājshāhi" }, "geometry": { "type": "Point", "coordinates": [ 88.1825, 24.5582 ] } },
{ "type": "Feature", "properties": { "source_name": "The Daily Star", "source_link": "http://www.thedailystar.net/newDesign/latest_news.php?nid=24242", "event_id": 1977, "event_date": "2010-06-15T04:00:00", "event_time": null, "event_title": "Dhamankhali village in Ukhia upazila", "event_description": "Four members of a family died around 4:00am at South Rahmater Bill village while at the same time another person, son of Zafar Alam, died at the Dhamankhali village in Ukhia upazila in the landslides.", "location_description": "Dhamankhali village in Ukhia upazila", "location_accuracy": "5km", "landslide_category": "landslide", "landslide_trigger": "downpour", "landslide_size": "medium", "landslide_setting": "unknown", "fatality_count": 1.0, "injury_count": null, "storm_name": null, "photo_link": null, "notes": null, "event_import_source": "glc", "event_import_id": 1977.0, "country_name": "Bangladesh", "country_code": "BD", "admin_division_name": "Chittagong", "admin_division_population": 253788.0, "gazeteer_closest_point": "Cox’s Bāzār", "gazeteer_distance": 32.54732, "submitted_date": "04/01/2014 12:00:00 AM", "created_date": "11/20/2017 03:17:00 PM", "last_edited_date": "02/15/2018 03:51:00 PM", "longitude": 92.19314477, "latitude": 21.23967983, "district_hint": "Chittagong" }, "geometry": { "type": "Point", "coordinates": [ 92.19314477, 21.23967983 ] } },
{ "type": "Feature", "properties": { "source_name": "china", "source_link": "http://www.china.org.cn/environment/2011-07/22/content_23044018.htm", "event_id": 3898, "event_date": "2011-08-08T00:00:00", "event_time": null, "event_title": "Bandarban, Bangladesh", "event_description": "Almost incessant rainfall since Monday wreaked havoc all over the country.  Till yesterday, nearly four lakh people in Bandarban remained disconnected from the rest of the country after the torrential rain caused landslides and floods in the hill district.  Many roads went under water and a worrisome number of families lost their homes to landslides after water in the Matamuhuri and Sangu rivers rose significantly above the danger level.  Our Chittagong correspondent reports: although road communication resumed in several parts of Bandarban yesterday, Bandarban Sadar remained totally detached.  The locals of Bandarban termed the downpour the \"all time heaviest\" and the aftermath \"unbelievable\".  The Met office recorded around 750mm of rain across the country yesterday with Bogra having the highest amount of rain, which was 216mm.  While the weather is expected to improve from today, reports of travel disruptions and floods poured in yesterday from all regions of the country.  Half ", "location_description": "Bandarban, Bangladesh", "location_accuracy": "10km", "landslide_category": "landslide", "landslide_trigger": "rain", "landslide_size": "medium", "landslide_setting": "unknown", "fatality_count": 2.0, "injury_count": null, "storm_name": null, "photo_link": null, "notes": null, "event_import_source": "glc", "event_import_id": 3898.0, "country_name": "Bangladesh", "country_code": "BD", "admin_division_name": "Chittagong", "admin_division_population": 32523.0, "gazeteer_closest_point": "Bāndarban", "gazeteer_distance": 0.67378, "submitted_date": "04/01/2014 12:00:00 AM", "created_date": "11/20/2017 03:17:00 PM", "last_edited_date": "02/15/2018 03:51:00 PM", "longitude": 92.2168, "latitude": 22.2009, "district_hint": "Chittagong" }, "geometry": { "type": "Point", "coordinates": [ 92.2168, 22.2009 ] } },
{ "type": "Feature", "properties": { "source_name": "The Daily Star", "source_link": "http://www.thedailystar.net/newDesign/latest_news.php?nid=24242", "event_id": 1972, "event_date": "2010-06-15T00:00:00", "event_time": null, "event_title": "Cox's Bazar town", "event_description": "Powerful landslides triggered by heavy rains killed at least 49 people, including six army personnel, on Tuesday in two southeastern districts of Cox’s Bazar and Bandarban.  In Cox’s Bazar, the mudslides occurred at different parts including the district town and Himchhari ECB camp, leaving 45 people dead.  Superintendent of Police Nibash Chandra Majhi said 31 people were killed in Teknaf, six in Ukhia, two in the district headquarters and six in the Himchhari army camp.  Of the army men buried under the mud, three bodies were recovered while search was going on for the rest, reports a correspondent from Cox’s Bazar.  Deputy Commissioner Md Gias Uddin Ahmed said they were urging people through loudhailers to evacuate the hilly areas. ", "location_description": "Cox's Bazar town", "location_accuracy": "10km", "landslide_category": "landslide", "landslide_trigger": "downpour", "landslide_size": "medium", "landslide_setting": "unknown", "fatality_count": 2.0, "injury_count": null, "storm_name": null, "photo_link": null, "notes": null, "event_import_source": "glc", "event_import_id": 1972.0, "country_name": "Bangladesh", "country_code": "BD", "admin_division_name": "Chittagong", "admin_division_population": 253788.0, "gazeteer_closest_point": "Cox’s Bāzār", "gazeteer_distance": 4.53886, "submitted_date": "04/01/2014 12:00:00 AM", "created_date": "11/20/2017 03:17:00 PM", "last_edited_date": "02/15/2018 03:51:00 PM", "longitude": 92.0082, "latitude": 21.4384, "district_hint": "Chittagong" }, "geometry": { "type": "Point", "coordinates": [ 92.0082, 21.4384 ] } },
{ "type": "Feature", "properties": { "source_name": "The Statesman", "source_link": "http://www.thestatesman.com/news/world/flood-tightens-grip-on-several-districts-of-bangladesh/78463.html", "event_id": 7298, "event_date": "2015-07-27T00:00:00", "event_time": null, "event_title": "Surson Rd, Chittagong", "event_description": "There were landslides in two hills in Chittagong city's GEC and Surson Road areas yesterday due to heavy rains, but no casualties were reported. Read more at http://www.thestatesman.com/news/world/flood-tightens-grip-on-several-districts-of-bangladesh/78463.html#saUWWYv7jRHK6ju5.99", "location_description": "Surson Rd, Chittagong", "location_accuracy": "1km", "landslide_category": "landslide", "landslide_trigger": "continuous_rain", "landslide_size": "small", "landslide_setting": "above_road", "fatality_count": 0.0, "injury_count": 0.0, "storm_name": null, "photo_link": null, "notes": null, "event_import_source": "glc", "event_import_id": 7298.0, "country_name": "Bangladesh", "country_code": "BD", "admin_division_name": "Chittagong", "admin_division_population": 3920222.0, "gazeteer_closest_point": "Chittagong", "gazeteer_distance": 1.45099, "submitted_date": "07/29/2015 07:19:00 PM", "created_date": "11/20/2017 03:17:00 PM", "last_edited_date": "02/15/2018 03:51:00 PM", "longitude": 91.8295, "latitude": 22.3513, "district_hint": "Chittagong" }, "geometry": { "type": "Point", "coordinates": [ 91.8295, 22.3513 ] } },
{ "type": "Feature", "properties": { "source_name": "Dhaka Tribune", "source_link": "http://www.dhakatribune.com/bangladesh/2015/jun/27/11-dead-landslides-flashfloods", "event_id": 7004, "event_date": "2015-06-27T09:00:00", "event_time": null, "event_title": "Ramu Upazila", "event_description": "In Cox’s Bazar, two people  Futu, 18 and Amir Hossian, 45,  were killed in separate incidents of landslide at Ramu upazila in the morning.", "location_description": "Ramu Upazila", "location_accuracy": "25km", "landslide_category": "landslide", "landslide_trigger": "monsoon", "landslide_size": "small", "landslide_setting": "unknown", "fatality_count": 1.0, "injury_count": 0.0, "storm_name": null, "photo_link": null, "notes": null, "event_import_source": "glc", "event_import_id": 7004.0, "country_name": "Bangladesh", "country_code": "BD", "admin_division_name": "Chittagong", "admin_division_population": 253788.0, "gazeteer_closest_point": "Cox’s Bāzār", "gazeteer_distance": 15.6565, "submitted_date": "06/29/2015 02:25:00 PM", "created_date": "11/20/2017 03:17:00 PM", "last_edited_date": "02/15/2018 03:51:00 PM", "longitude": 92.118, "latitude": 21.4406, "district_hint": "Chittagong" }, "geometry": { "type": "Point", "coordinates": [ 92.118, 21.4406 ] } },
{ "type": "Feature", "properties": { "source_name": "The Daily Star", "source_link": "http://www.thedailystar.net/story.php?nid=3742", "event_id": 253, "event_date": "2007-09-10T00:00:00", "event_time": null, "event_title": "Nabinagar in Chittagong", "event_description": "earth fell onto 2 girls in slums of city", "location_description": "Nabinagar in Chittagong", "location_accuracy": "5km", "landslide_category": "mudslide", "landslide_trigger": "rain", "landslide_size": "medium", "landslide_setting": "unknown", "fatality_count": 2.0, "injury_count": null, "storm_name": null, "photo_link": null, "notes": null, "event_import_source": "glc", "event_import_id": 253.0, "country_name": "Bangladesh", "country_code": "BD", "admin_division_name": "Chittagong", "admin_division_population": 31671.0, "gazeteer_closest_point": "Nabīnagar", "gazeteer_distance": 0.68998, "submitted_date": "04/01/2014 12:00:00 AM", "created_date": "11/20/2017 03:17:00 PM", "last_edited_date": "02/15/2018 03:51:00 PM", "longitude": 90.9733, "latitude": 23.8917, "district_hint": "Chittagong" }, "geometry": { "type": "Point", "coordinates": [ 90.9733, 23.8917 ] } },
{ "type": "Feature", "properties": { "source_name": "Dhaka Tribune", "source_link": "http://www.dhakatribune.com/bangladesh/2015/jun/27/landslides-flashfloods-death-toll-climbs-13", "event_id": 7001, "event_date": "2015-06-27T10:30:00", "event_time": null, "event_title": "Shamlapur", "event_description": "A woman and her daughter have been killed in a landslide at Shamlapur village of Baharchhara union in Teknaf upazila of Cox's Bazar.  The deceased are Samoda Khatun, 45, and her daughter Shahena Aktar, 16.", "location_description": "Shamlapur", "location_accuracy": "1km", "landslide_category": "landslide", "landslide_trigger": "flooding", "landslide_size": "medium", "landslide_setting": "unknown", "fatality_count": 2.0, "injury_count": 0.0, "storm_name": null, "photo_link": null, "notes": null, "event_import_source": "glc", "event_import_id": 7001.0, "country_name": "Bangladesh", "country_code": "BD", "admin_division_name": "Chittagong", "admin_division_population": 40557.0, "gazeteer_closest_point": "Teknāf", "gazeteer_distance": 29.64122, "submitted_date": "06/29/2015 01:55:00 PM", "created_date": "11/20/2017 03:17:00 PM", "last_edited_date": "02/15/2018 03:51:00 PM", "longitude": 92.1414, "latitude": 21.0853, "district_hint": "Chittagong" }, "geometry": { "type": "Point", "coordinates": [ 92.1414, 21.0853 ] } },
{ "type": "Feature", "properties": { "source_name": "Dhaka Tribune", "source_link": "http://www.dhakatribune.com/bangladesh/2015/sep/01/schoolgirl-killed-coxs-bazar-landslide", "event_id": 7924, "event_date": "2015-09-01T11:30:00", "event_time": null, "event_title": "Cox's Bazar", "event_description": "A school girl has been killed in a landslide in south Mohoripara area in Cox’s Bazar.Farzana Rashid, 14, was the daughter of Abu Taher and a class VII student of College Gate Ilias Mia High School.Sadar upazila Chairman GM Rahim Ullah said: “The landslide took place around 11:30am Tuesday due to the heavy rain in the area since Monday night.”", "location_description": "Cox's Bazar", "location_accuracy": "5km", "landslide_category": "landslide", "landslide_trigger": "downpour", "landslide_size": "medium", "landslide_setting": "above_road", "fatality_count": 1.0, "injury_count": 0.0, "storm_name": null, "photo_link": null, "notes": null, "event_import_source": "glc", "event_import_id": 7924.0, "country_name": "Bangladesh", "country_code": "BD", "admin_division_name": "Chittagong", "admin_division_population": 253788.0, "gazeteer_closest_point": "Cox’s Bāzār", "gazeteer_distance": 6.81666, "submitted_date": "06/29/2016 07:44:00 PM", "created_date": "11/20/2017 03:17:00 PM", "last_edited_date": "02/15/2018 03:51:00 PM", "longitude": 91.96737514, "latitude": 21.47819035, "district_hint": "Chittagong" }, "geometry": { "type": "Point", "coordinates": [ 91.96737514, 21.47819035 ] } },
{ "type": "Feature", "properties": { "source_name": "Daily Star", "source_link": "http://www.thedailystar.net/one-killed-4-injured-in-bandarban-landslide-63887", "event_id": 6753, "event_date": "2015-02-08T12:00:00", "event_time": null, "event_title": "Siddique Nagar in Bandarban Sadar", "event_description": "A worker was killed and four others were injured in a landslide while cutting a hill for construction of a road in Siddique Nagar area of Bandarban Sadar upazila yesterday. The deceased was identified as Mohammad Jakaria, 24, a resident of Teknaf upazila in Cox's Bazar district.", "location_description": "Siddique Nagar in Bandarban Sadar", "location_accuracy": "50km", "landslide_category": "rock_fall", "landslide_trigger": "mining", "landslide_size": "small", "landslide_setting": "mine", "fatality_count": 1.0, "injury_count": 4.0, "storm_name": null, "photo_link": "http://www.thedailystar.net/upload/gallery/image/arts/bandarban-landslide-killed.jpg", "notes": null, "event_import_source": "glc", "event_import_id": 6753.0, "country_name": "Bangladesh", "country_code": "BD", "admin_division_name": "Chittagong", "admin_division_population": 32523.0, "gazeteer_closest_point": "Bāndarban", "gazeteer_distance": 0.7726, "submitted_date": "02/09/2015 11:31:00 PM", "created_date": "11/20/2017 03:17:00 PM", "last_edited_date": "02/15/2018 03:51:00 PM", "longitude": 92.2217, "latitude": 22.202, "district_hint": "Chittagong" }, "geometry": { "type": "Point", "coordinates": [ 92.2217, 22.202 ] } },
{ "type": "Feature", "properties": { "source_name": "The Daily Star", "source_link": "http://www.thedailystar.net/city/3-family-hurt-sylhet-mudslide-95881", "event_id": 6982, "event_date": "2015-06-11T09:00:00", "event_time": null, "event_title": "Muhona residential area of Sylhet", "event_description": "Three members of a family were injured as a chunk of earth from a rain-soaked hill fell on their tin-roofed house", "location_description": "Muhona residential area of Sylhet", "location_accuracy": "5km", "landslide_category": "landslide", "landslide_trigger": "rain", "landslide_size": "small", "landslide_setting": "urban", "fatality_count": 0.0, "injury_count": 3.0, "storm_name": null, "photo_link": null, "notes": null, "event_import_source": "glc", "event_import_id": 6982.0, "country_name": "Bangladesh", "country_code": "BD", "admin_division_name": "Sylhet", "admin_division_population": 237000.0, "gazeteer_closest_point": "Sylhet", "gazeteer_distance": 0.58709, "submitted_date": "06/26/2015 02:39:00 PM", "created_date": "11/20/2017 03:17:00 PM", "last_edited_date": "02/15/2018 03:51:00 PM", "longitude": 91.8771, "latitude": 24.9016, "district_hint": "Sylhet" }, "geometry": { "type": "Point", "coordinates": [ 91.8771, 24.9016 ] } },
{ "type": "Feature", "properties": { "source_name": "The Daily Star", "source_link": "http://www.thedailystar.net/country/mother-daughter-killed-cox%E2%80%99s-bazar-landslide-117445", "event_id": 7281, "event_date": "2015-07-27T02:00:00", "event_time": null, "event_title": "Cox's Bazar", "event_description": "Five people including three women and a six-year-old child were killed in a landslide triggered by incessant rain in Cox’s Bazar town today. At least four houses were buried in the landslide at 2:00am near the local radar station. A part of the station’s wall was also brought down by the landslide.", "location_description": "Cox's Bazar", "location_accuracy": "10km", "landslide_category": "landslide", "landslide_trigger": "continuous_rain", "landslide_size": "medium", "landslide_setting": "natural_slope", "fatality_count": 5.0, "injury_count": 0.0, "storm_name": null, "photo_link": "http://en.newsbd71.com/wp-content/uploads/2015/07/hillslip-600x336.jpg", "notes": null, "event_import_source": "glc", "event_import_id": 7281.0, "country_name": "Bangladesh", "country_code": "BD", "admin_division_name": "Chittagong", "admin_division_population": 253788.0, "gazeteer_closest_point": "Cox’s Bāzār", "gazeteer_distance": 1.2302, "submitted_date": "10/21/2015 07:29:00 PM", "created_date": "11/20/2017 03:17:00 PM", "last_edited_date": "02/15/2018 03:51:00 PM", "longitude": 92.2195, "latitude": 20.9383, "district_hint": "Chittagong" }, "geometry": { "type": "Point", "coordinates": [ 92.2195, 20.9383 ] } },
{ "type": "Feature", "properties": { "source_name": "hindustantimes", "source_link": "http://www.hindustantimes.com/StoryPage/StoryPage.aspx?id=f31c1a18-8a57-44ad-b45f-5765f562b803&MatchID1=4721&TeamID1=8&TeamID2=6&MatchType1=2&SeriesID1=1189&MatchID2=4747&TeamID3=4&TeamID4=1&MatchType2=2&SeriesID2=1196&PrimaryID=4721&Headline=Land", "event_id": 626, "event_date": "2008-07-03T00:00:00", "event_time": null, "event_title": "Cox's Bazar, Moheshkhali,Teknaf", "event_description": "Ten people were killed in landslides in Teknaf sub district and Moheshkhali offshore island of Cox's Bazar, a police officer said", "location_description": "Cox's Bazar, Moheshkhali,Teknaf", "location_accuracy": "5km", "landslide_category": "landslide", "landslide_trigger": "downpour", "landslide_size": "medium", "landslide_setting": "unknown", "fatality_count": 20.0, "injury_count": null, "storm_name": null, "photo_link": null, "notes": null, "event_import_source": "glc", "event_import_id": 626.0, "country_name": "Bangladesh", "country_code": "BD", "admin_division_name": "Chittagong", "admin_division_population": 253788.0, "gazeteer_closest_point": "Cox’s Bāzār", "gazeteer_distance": 3.68821, "submitted_date": "04/01/2014 12:00:00 AM", "created_date": "11/20/2017 03:17:00 PM", "last_edited_date": "02/15/2018 03:51:00 PM", "longitude": 92.0, "latitude": 21.44, "district_hint": "Chittagong" }, "geometry": { "type": "Point", "coordinates": [ 92.0, 21.44 ] } },
{ "type": "Feature", "properties": { "source_name": "www.dhakatribune.com", "source_link": "http://www.dhakatribune.com/bangladesh/2013/jul/29/spate-deaths-landslides-continues", "event_id": 5218, "event_date": "2013-07-28T04:30:00", "event_time": null, "event_title": "Lal Khan Bazaar, Chittagong, Chittagong Division", "event_description": "The latest incident took place only Sunday when a landslide, triggered by heavy rain, left a woman and her daughter dead in the cityÕs Lalkhan Bazar area. - See more at: http://www.dhakatribune.com/bangladesh/2013/jul/29/spate-deaths-landslides-continues#sthash.dVp5FmQd.dpuf", "location_description": "Lal Khan Bazaar, Chittagong, Chittagong Division", "location_accuracy": "1km", "landslide_category": "landslide", "landslide_trigger": "downpour", "landslide_size": "medium", "landslide_setting": "unknown", "fatality_count": 2.0, "injury_count": null, "storm_name": null, "photo_link": null, "notes": null, "event_import_source": "glc", "event_import_id": 5218.0, "country_name": "Bangladesh", "country_code": "BD", "admin_division_name": "Chittagong", "admin_division_population": 3920222.0, "gazeteer_closest_point": "Chittagong", "gazeteer_distance": 2.28507, "submitted_date": "04/01/2014 12:00:00 AM", "created_date": "11/20/2017 03:17:00 PM", "last_edited_date": "02/15/2018 03:51:00 PM", "longitude": 91.8151, "latitude": 22.3521, "district_hint": "Chittagong" }, "geometry": { "type": "Point", "coordinates": [ 91.8151, 22.3521 ] } },
{ "type": "Feature", "properties": { "source_name": "The Daily Star", "source_link": "http://www.thedailystar.net/newDesign/latest_news.php?nid=24242", "event_id": 1980, "event_date": "2010-06-15T08:00:00", "event_time": null, "event_title": "Uttarpara Baganboni(?), Naikhangchhari upazila(?), Bandarban", "event_description": "In Bandarban, four members of a family were killed in a landslide at Uttarpara Baganboni in Naikhangchhari upazila early Tuesday morning, UNB adds.  The victims were identified as Khairul Bashar, 35, his wife Parveen Akther, 27, son Sakib, 7, and daughter Fatema.  Local sources said all the four were killed, buried under a heavy chunk of mud that fell on Khairul’s house at the foot of a hill during heavy downpour.", "location_description": "Uttarpara Baganboni(?), Naikhangchhari upazila(?), Bandarban", "location_accuracy": "unknown", "landslide_category": "landslide", "landslide_trigger": "downpour", "landslide_size": "medium", "landslide_setting": "unknown", "fatality_count": 4.0, "injury_count": null, "storm_name": null, "photo_link": null, "notes": null, "event_import_source": "glc", "event_import_id": 1980.0, "country_name": "Bangladesh", "country_code": "BD", "admin_division_name": "Chittagong", "admin_division_population": 32523.0, "gazeteer_closest_point": "Bāndarban", "gazeteer_distance": 24.6146, "submitted_date": "04/01/2014 12:00:00 AM", "created_date": "11/20/2017 03:17:00 PM", "last_edited_date": "02/15/2018 03:51:00 PM", "longitude": 92.3333, "latitude": 22.0, "district_hint": "Chittagong" }, "geometry": { "type": "Point", "coordinates": [ 92.3333, 22.0 ] } },
{ "type": "Feature", "properties": { "source_name": "The Daily Star", "source_link": "http://www.thedailystar.net/country/6-killed-landslide-wall-collapse-ctg-113944", "event_id": 7223, "event_date": "2015-07-19T01:30:00", "event_time": null, "event_title": "Lal Khan Bazaar", "event_description": "In Lalkhan area, two of a family and one of another family were killed due to wall collapse after heavy rainfall around 1:30am", "location_description": "Lal Khan Bazaar", "location_accuracy": "1km", "landslide_category": "other", "landslide_trigger": "downpour", "landslide_size": "small", "landslide_setting": "urban", "fatality_count": 3.0, "injury_count": 0.0, "storm_name": null, "photo_link": null, "notes": null, "event_import_source": "glc", "event_import_id": 7223.0, "country_name": "Bangladesh", "country_code": "BD", "admin_division_name": "Chittagong", "admin_division_population": 3920222.0, "gazeteer_closest_point": "Chittagong", "gazeteer_distance": 2.21135, "submitted_date": "07/20/2015 02:12:00 PM", "created_date": "11/20/2017 03:17:00 PM", "last_edited_date": "02/15/2018 03:51:00 PM", "longitude": 91.8147, "latitude": 22.3507, "district_hint": "Chittagong" }, "geometry": { "type": "Point", "coordinates": [ 91.8147, 22.3507 ] } },
{ "type": "Feature", "properties": { "source_name": "Daily Star", "source_link": "http://www.thedailystar.net/country/rain-triggers-landslide-floods-bandarban-khagrachhari-130276", "event_id": 7718, "event_date": "2015-08-21T00:00:00", "event_time": null, "event_title": "Bāndarban : At least eight houses were damaged in similar landslides in New Gulshan, Langi Para and Banarupa Para areas of the uapzila amid incessant*", "event_description": "At least eight houses were damaged in similar landslides in New Gulshan, Langi Para and Banarupa Para areas of the uapzila amid incessant rain in the morning, he added.", "location_description": null, "location_accuracy": "1km", "landslide_category": "landslide", "landslide_trigger": "continuous_rain", "landslide_size": "medium", "landslide_setting": "urban", "fatality_count": 0.0, "injury_count": 0.0, "storm_name": null, "photo_link": null, "notes": null, "event_import_source": "glc", "event_import_id": 7718.0, "country_name": "Bangladesh", "country_code": "BD", "admin_division_name": "Chittagong", "admin_division_population": 32523.0, "gazeteer_closest_point": "Bāndarban", "gazeteer_distance": 0.78566, "submitted_date": "05/26/2016 10:06:00 PM", "created_date": "11/20/2017 03:17:00 PM", "last_edited_date": "02/15/2018 03:51:00 PM", "longitude": 92.2135, "latitude": 22.1909, "district_hint": "Chittagong" }, "geometry": { "type": "Point", "coordinates": [ 92.2135, 22.1909 ] } },
{ "type": "Feature", "properties": { "source_name": "africa.reuters", "source_link": "http://africa.reuters.com/world/news/usnDEL257604.html", "event_id": 727, "event_date": "2008-08-18T00:00:00", "event_time": null, "event_title": "Lalkhan Bazar in Chittagong, Cox Bazar", "event_description": "occurred in morning at Motijharna, chunks of soil rolled down from 10-12 meters smashing huts below; 142 millimeters (5.6 inches) of rain in 24 hours", "location_description": "Lalkhan Bazar in Chittagong, Cox Bazar", "location_accuracy": "10km", "landslide_category": "landslide", "landslide_trigger": "monsoon", "landslide_size": "medium", "landslide_setting": "unknown", "fatality_count": 11.0, "injury_count": null, "storm_name": null, "photo_link": null, "notes": null, "event_import_source": "glc", "event_import_id": 727.0, "country_name": "Bangladesh", "country_code": "BD", "admin_division_name": "Chittagong", "admin_division_population": 3920222.0, "gazeteer_closest_point": "Chittagong", "gazeteer_distance": 0.83926, "submitted_date": "07/20/2015 02:06:00 PM", "created_date": "11/20/2017 03:17:00 PM", "last_edited_date": "02/15/2018 03:51:00 PM", "longitude": 91.8242, "latitude": 22.3421, "district_hint": "Chittagong" }, "geometry": { "type": "Point", "coordinates": [ 91.8242, 22.3421 ] } },
{ "type": "Feature", "properties": { "source_name": "morungexpress", "source_link": "http://www.morungexpress.com/regional/1752.html", "event_id": 683, "event_date": "2008-08-01T00:00:00", "event_time": null, "event_title": "Meghalaya, Kalaphahar kills", "event_description": "4 villages on Bangladesh-India border affected by flooding/sand-debris blocking major roads. Occurred sometime 7-20 to 8-16", "location_description": "Meghalaya, Kalaphahar kills", "location_accuracy": "50km", "landslide_category": "landslide", "landslide_trigger": "rain", "landslide_size": "medium", "landslide_setting": "unknown", "fatality_count": null, "injury_count": null, "storm_name": null, "photo_link": null, "notes": null, "event_import_source": "glc", "event_import_id": 683.0, "country_name": "Bangladesh", "country_code": "BD", "admin_division_name": "Sylhet", "admin_division_population": 237000.0, "gazeteer_closest_point": "Sylhet", "gazeteer_distance": 3.0718, "submitted_date": "04/01/2014 12:00:00 AM", "created_date": "11/20/2017 03:17:00 PM", "last_edited_date": "02/15/2018 03:51:00 PM", "longitude": 91.9022, "latitude": 24.896, "district_hint": "Sylhet" }, "geometry": { "type": "Point", "coordinates": [ 91.9022, 24.896 ] } },
{ "type": "Feature", "properties": { "source_name": "foxnews", "source_link": "http://www.foxnews.com/world/2012/06/27/landslides-kill-30-in-southern-bangladesh513572/", "event_id": 4431, "event_date": "2012-06-24T00:00:00", "event_time": null, "event_title": "Bandarban ", "event_description": "Landslides and floods caused by heavy monsoon rains killed at least 91 people in southern Bangladesh and many more were missing, the government said Wednesday.  At least 37 died in Cox's Bazar, 33 in neighboring Bandarban and another 21 in Chittagong, mostly in a series of landslides, the Disaster Management Ministry said. It said soldiers were joining the search for the missing. Three days of torrential rain in the region of small hills and forests dislodged huge chunks of earth which buried flimsy huts where families were sleeping late Tuesday and early Wednesday. Many homeless people live at the foot of the hills or close to them despite warnings from authorities.  Read more: http://www.foxnews.com/world/2012/06/27/landslides-kill-30-in-southern-bangladesh513572/#ixzz2HgIbeaxQ  Read more: http://www.foxnews.com/world/2012/06/27/landslides-kill-30-in-southern-bangladesh513572/#ixzz2HgIT0LvN", "location_description": "Bandarban ", "location_accuracy": "unknown", "landslide_category": "landslide", "landslide_trigger": "downpour", "landslide_size": "large", "landslide_setting": "unknown", "fatality_count": 36.0, "injury_count": null, "storm_name": null, "photo_link": null, "notes": null, "event_import_source": "glc", "event_import_id": 4431.0, "country_name": "Bangladesh", "country_code": "BD", "admin_division_name": "Chittagong", "admin_division_population": 52005.0, "gazeteer_closest_point": "Sātkania", "gazeteer_distance": 48.13191, "submitted_date": "04/01/2014 12:00:00 AM", "created_date": "11/20/2017 03:17:00 PM", "last_edited_date": "02/15/2018 03:51:00 PM", "longitude": 92.3783, "latitude": 21.7684, "district_hint": "Chittagong" }, "geometry": { "type": "Point", "coordinates": [ 92.3783, 21.7684 ] } },
{ "type": "Feature", "properties": { "source_name": "Daily Star", "source_link": "http://www.thedailystar.net/city/ctg-manila-hill-owner-fined-tk-10-lakh-landslide-118918", "event_id": 7359, "event_date": "2015-09-27T00:00:00", "event_time": null, "event_title": "District Shilpakala Academy, Chittagong city", "event_description": "The Department of Environment (DoE) yesterday fined the owner of Manila hill Tk 10 lakh for keeping 2,500 sacks of sand on the hill slope which resulted in a landslide in Chittagong city on Sunday.", "location_description": "District Shilpakala Academy, Chittagong city", "location_accuracy": "25km", "landslide_category": "landslide", "landslide_trigger": "construction", "landslide_size": "small", "landslide_setting": "urban", "fatality_count": 0.0, "injury_count": 0.0, "storm_name": null, "photo_link": null, "notes": null, "event_import_source": "glc", "event_import_id": 7359.0, "country_name": "Bangladesh", "country_code": "BD", "admin_division_name": "Chittagong", "admin_division_population": 3920222.0, "gazeteer_closest_point": "Chittagong", "gazeteer_distance": 2.58085, "submitted_date": "10/28/2015 09:56:00 PM", "created_date": "11/20/2017 03:17:00 PM", "last_edited_date": "02/15/2018 03:51:00 PM", "longitude": 91.8236, "latitude": 22.3605, "district_hint": "Chittagong" }, "geometry": { "type": "Point", "coordinates": [ 91.8236, 22.3605 ] } },
{ "type": "Feature", "properties": { "source_name": "The Daily Star", "source_link": "http://www.thedailystar.net/country/6-killed-landslide-wall-collapse-ctg-113944", "event_id": 7222, "event_date": "2015-07-19T02:00:00", "event_time": null, "event_title": "Amin Colony, Bayazid", "event_description": "Six people of three families were killed in separate incidents of landslide and wall collapse at Bayezid and Lalkhan areas of Chittagong city due to heavy rain early today.  The authorities have asked people of the neighbourhood through miking this noon to move to safer places to ensure safety", "location_description": "Amin Colony, Bayazid", "location_accuracy": "5km", "landslide_category": "landslide", "landslide_trigger": "downpour", "landslide_size": "small", "landslide_setting": "urban", "fatality_count": 3.0, "injury_count": 0.0, "storm_name": null, "photo_link": null, "notes": null, "event_import_source": "glc", "event_import_id": 7222.0, "country_name": "Bangladesh", "country_code": "BD", "admin_division_name": "Chittagong", "admin_division_population": 3920222.0, "gazeteer_closest_point": "Chittagong", "gazeteer_distance": 6.02922, "submitted_date": "07/20/2015 02:06:00 PM", "created_date": "11/20/2017 03:17:00 PM", "last_edited_date": "02/15/2018 03:51:00 PM", "longitude": 91.8177, "latitude": 22.3913, "district_hint": "Chittagong" }, "geometry": { "type": "Point", "coordinates": [ 91.8177, 22.3913 ] } },
{ "type": "Feature", "properties": { "source_name": "The Daily Star", "source_link": "http://www.thedailystar.net/newDesign/latest_news.php?nid=24242", "event_id": 1974, "event_date": "2010-06-15T00:00:00", "event_time": null, "event_title": "Cox's Bazar", "event_description": "Powerful landslides triggered by heavy rains killed at least 49 people, including six army personnel, on Tuesday in two southeastern districts of Cox’s Bazar and Bandarban.  In Cox’s Bazar, the mudslides occurred at different parts including the district town and Himchhari ECB camp, leaving 45 people dead.  Superintendent of Police Nibash Chandra Majhi said 31 people were killed in Teknaf, six in Ukhia, two in the district headquarters and six in the Himchhari army camp.  Of the army men buried under the mud, three bodies were recovered while search was going on for the rest, reports a correspondent from Cox’s Bazar.  Deputy Commissioner Md Gias Uddin Ahmed said they were urging people through loudhailers to evacuate the hilly areas. ", "location_description": "Cox's Bazar", "location_accuracy": "5km", "landslide_category": "landslide", "landslide_trigger": "downpour", "landslide_size": "large", "landslide_setting": "unknown", "fatality_count": 31.0, "injury_count": null, "storm_name": null, "photo_link": null, "notes": null, "event_import_source": "glc", "event_import_id": 1974.0, "country_name": "Bangladesh", "country_code": "BD", "admin_division_name": "Chittagong", "admin_division_population": 40557.0, "gazeteer_closest_point": "Teknāf", "gazeteer_distance": 0.29303, "submitted_date": "04/01/2014 12:00:00 AM", "created_date": "11/20/2017 03:17:00 PM", "last_edited_date": "02/15/2018 03:51:00 PM", "longitude": 92.19566765, "latitude": 21.06313524, "district_hint": "Chittagong" }, "geometry": { "type": "Point", "coordinates": [ 92.19566765, 21.06313524 ] } },
{ "type": "Feature", "properties": { "source_name": "Daily Star", "source_link": "http://www.thedailystar.net/country/landslide-kills-2-in-habiganj-64024", "event_id": 6758, "event_date": "2015-02-09T11:00:00", "event_time": null, "event_title": "Gulgaon Hill area under Bahubal upazila of Habiganj district", "event_description": "Two workers were killed in a landslide while cutting a hill in Gulgaon Hill area under Bahubal upazila of Habiganj district yesterday.", "location_description": "Gulgaon Hill area under Bahubal upazila of Habiganj district", "location_accuracy": "10km", "landslide_category": "other", "landslide_trigger": "mining", "landslide_size": "small", "landslide_setting": "mine", "fatality_count": 2.0, "injury_count": 0.0, "storm_name": null, "photo_link": null, "notes": null, "event_import_source": "glc", "event_import_id": 6758.0, "country_name": "Bangladesh", "country_code": "BD", "admin_division_name": "Sylhet", "admin_division_population": 88760.0, "gazeteer_closest_point": "Habiganj", "gazeteer_distance": 16.28953, "submitted_date": "02/10/2015 03:28:00 PM", "created_date": "11/20/2017 03:17:00 PM", "last_edited_date": "02/15/2018 03:51:00 PM", "longitude": 91.5642, "latitude": 24.3311, "district_hint": "Sylhet" }, "geometry": { "type": "Point", "coordinates": [ 91.5642, 24.3311 ] } },
{ "type": "Feature", "properties": { "source_name": "The Daily Star", "source_link": "http://www.thedailystar.net/frontpage/rain-triggers-landslides-103642", "event_id": 7002, "event_date": "2015-06-26T03:00:00", "event_time": null, "event_title": "Banorupa Para in Sadar upazila, Bandarban", "event_description": "Two siblings -- Alif, 11, and his sister Mim, 8, children of Abdur Razzak -- were killed in their sleep after a landslide partially buried their house at Banorupa Para in Sadar upazila in the early hours yesterday, our Bandarban correspondent reports.  Their parents were also injured in the incident...A number of other houses were reportedly damaged in landslides in other parts of the district.", "location_description": "Banorupa Para in Sadar upazila, Bandarban", "location_accuracy": "25km", "landslide_category": "landslide", "landslide_trigger": "monsoon", "landslide_size": "medium", "landslide_setting": "unknown", "fatality_count": 2.0, "injury_count": 2.0, "storm_name": null, "photo_link": null, "notes": null, "event_import_source": "glc", "event_import_id": 7002.0, "country_name": "Bangladesh", "country_code": "BD", "admin_division_name": "Chittagong", "admin_division_population": 32523.0, "gazeteer_closest_point": "Bāndarban", "gazeteer_distance": 2.64839, "submitted_date": "06/29/2015 02:20:00 PM", "created_date": "11/20/2017 03:17:00 PM", "last_edited_date": "02/15/2018 03:51:00 PM", "longitude": 92.235, "latitude": 22.2144, "district_hint": "Chittagong" }, "geometry": { "type": "Point", "coordinates": [ 92.235, 22.2144 ] } },
{ "type": "Feature", "properties": { "source_name": "Wikipedia", "source_link": "http://en.wikipedia.org/wiki/2007_Chittagong_mudslide", "event_id": 84, "event_date": "2007-06-11T10:00:00", "event_time": null, "event_title": "Chittagong", "event_description": "128 killed, many missing, 150 injured; occurred at 10:00 hrs, 219mm of rainfall w/in 24 hrs", "location_description": "Chittagong", "location_accuracy": "25km", "landslide_category": "landslide", "landslide_trigger": "monsoon", "landslide_size": "very_large", "landslide_setting": "urban", "fatality_count": 128.0, "injury_count": 150.0, "storm_name": null, "photo_link": null, "notes": null, "event_import_source": "glc", "event_import_id": 84.0, "country_name": "Bangladesh", "country_code": "BD", "admin_division_name": "Chittagong", "admin_division_population": 3920222.0, "gazeteer_closest_point": "Chittagong", "gazeteer_distance": 2.48492, "submitted_date": "12/16/2015 08:58:00 PM", "created_date": "11/20/2017 03:17:00 PM", "last_edited_date": "02/15/2018 03:51:00 PM", "longitude": 91.8205, "latitude": 22.3555, "district_hint": "Chittagong" }, "geometry": { "type": "Point", "coordinates": [ 91.8205, 22.3555 ] } }
]
}
